{"type":"FeatureCollection","features":[{"type":"Feature","geometry":{"type":"Polygon","coordinates":[[[113.26897,21.702095],[113.35573,21.768044],[113.360648,21.785852],[113.360751,21.787221],[113.360467,21.797005],[113.3525843,21.85611104],[113.319469,21.857181],[113.286836,21.861126],[113.267195,21.860464],[113.266568,21.860403],[113.262872,21.859284],[113.25529,21.853515],[113.253647,21.848355],[113.26897,21.702095]]]},"properties":{"pid":22,"name":"高栏锚地","guid":"e1730452-28c2-4645-975e-5c4f04280e60"}},{"type":"Feature","geometry":{"type":"Polygon","coordinates":[[[122.600901,37.4469290555556],[122.600954638889,37.4332567222222],[122.624182555556,37.4335123055556],[122.6243435,37.4469716388889],[122.600901,37.4469290555556]]]},"properties":{"pid":84,"name":"龙眼港1号锚地","guid":"df59c842-1790-4c4a-b3e6-23188ffc0511"}},{"type":"Feature","geometry":{"type":"Polygon","coordinates":[[[108.6180649,18.54168593],[108.6175484,18.54093338],[108.6169619,18.540234],[108.6163109,18.53959427],[108.6156013,18.53902012],[108.6148399,18.53851688],[108.6140335,18.53808921],[108.6131898,18.53774109],[108.6123164,18.53747573],[108.6114217,18.5372956],[108.6105137,18.53720237],[108.609601,18.5371969],[108.6086919,18.53727925],[108.6077951,18.53744865],[108.5950158,18.54050612],[108.594886,18.54053815],[108.3279869,18.60838826],[108.3271093,18.60865721],[108.3262619,18.60900978],[108.3254525,18.60944266],[108.3246888,18.6099518],[108.3239779,18.61053242],[108.3233265,18.61117907],[108.3227407,18.6118857],[108.322226,18.61264567],[108.3217872,18.61345186],[108.3214285,18.61429672],[108.3201849,18.61767081],[108.3199015,18.6185774],[108.3197102,18.61950779],[108.319613,18.62045265],[108.3196109,18.6214025],[108.3197039,18.62234779],[108.3198909,18.62327903],[108.3201703,18.62418688],[108.3205391,18.6250622],[108.3621575,18.71146319],[108.3626037,18.71228357],[108.3631285,18.71305606],[108.3637268,18.71377315],[108.3643927,18.71442789],[108.3651198,18.71501392],[108.3659011,18.71552556],[108.3667289,18.71595782],[108.3675953,18.71630653],[108.3684917,18.71656829],[108.3694096,18.71674056],[108.3696461,18.71677299],[108.3705912,18.71685464],[108.3715397,18.71684142],[108.3724822,18.71673345],[108.3734092,18.71653182],[108.3743113,18.71623854],[108.3751797,18.71585655],[108.4473003,18.67971993],[108.4484417,18.67904423],[108.5916226,18.58013103],[108.5921957,18.57970229],[108.5927348,18.57923152],[108.6174769,18.55592181],[108.617841,18.55555966],[108.6178792,18.5555196],[108.618464,18.55484452],[108.6189827,18.55411739],[108.6194306,18.55334467],[108.6198038,18.55253322],[108.620099,18.55169024],[108.6203135,18.55082322],[108.6204455,18.54993985],[108.6204937,18.54904799],[108.6204578,18.54815554],[108.6203891,18.54737162],[108.6202712,18.54649654],[108.6200723,18.54563622],[108.6197943,18.54479814],[108.6194395,18.54398958],[108.6190109,18.54321754],[108.6180649,18.54168593]]]},"properties":{"pid":24,"name":"乐东锚地","guid":"03ad4a7f-1b6d-4cb6-9645-ae6f0ecc5f19"}},{"type":"Feature","geometry":{"type":"Polygon","coordinates":[[[108.5465819,19.03575491],[108.545661,19.03546534],[108.5447154,19.03527067],[108.543755,19.03517291],[108.5427896,19.03517308],[108.5424157,19.03519216],[108.5413374,19.03530914],[108.5412458,19.0353244],[108.5408599,19.03539693],[108.4674957,19.05076254],[108.4667402,19.0509534],[108.4660028,19.05120552],[108.4655756,19.05137146],[108.4645346,19.05184984],[108.4635587,19.05244999],[108.463284,19.05264263],[108.4625646,19.05320045],[108.4619019,19.05382454],[108.4613019,19.05450915],[108.4607701,19.05524803],[108.4598165,19.05671669],[108.4593513,19.05751548],[108.458966,19.05835567],[108.4586641,19.05922932],[108.4584485,19.06012816],[108.4556561,19.07490248],[108.4555677,19.07546122],[108.4518979,19.1041382],[108.4518261,19.10503405],[108.4518392,19.10593267],[108.4519372,19.10682604],[108.452119,19.10770616],[108.4523832,19.10856518],[108.4527273,19.10939541],[108.4531927,19.11038341],[108.4535886,19.11113489],[108.45405,19.11184802],[108.4545733,19.11251712],[108.4551542,19.11313683],[108.4557881,19.11370221],[108.4583821,19.11581555],[108.458897,19.11620669],[108.4610408,19.11772303],[108.4618147,19.11821612],[108.4626325,19.11863229],[108.4634866,19.11896768],[108.464369,19.11921916],[108.4652716,19.11938437],[108.4661859,19.1194618],[108.4671034,19.1194507],[108.4680156,19.11935119],[108.4689139,19.11916419],[108.5308036,19.10312911],[108.5310205,19.10307017],[108.5312417,19.10300723],[108.5318654,19.10280632],[108.5761769,19.08682655],[108.577094,19.08644047],[108.5779657,19.08596062],[108.5787825,19.08539229],[108.5795354,19.08474168],[108.5802161,19.08401593],[108.5808172,19.083223],[108.5813322,19.08237157],[108.5814619,19.08212934],[108.5818493,19.08131519],[108.5821579,19.080468],[108.5823847,19.0795954],[108.5825279,19.07870522],[108.5825861,19.07780547],[108.5825588,19.07690427],[108.5822994,19.07357404],[108.5821838,19.07266187],[108.5819805,19.07176515],[108.5816916,19.07089226],[108.5813197,19.07005137],[108.5808683,19.06925035],[108.5803416,19.06849669],[108.5797445,19.06779744],[108.5796835,19.06773259],[108.5795117,19.0675548],[108.5502759,19.03806719],[108.549511,19.03737522],[108.5486757,19.0367702],[108.5477798,19.03625924],[108.5468337,19.03584837],[108.5465819,19.03575491]]]},"properties":{"pid":25,"name":"八所锚地","guid":"d028b4f8-b2d8-403c-af84-d14da78ddbf5"}},{"type":"Feature","geometry":{"type":"Polygon","coordinates":[[[117.976432583333,39.0048488888889],[117.939727055556,38.8945671666667],[117.825231166667,38.8304423055556],[117.959770777778,38.6709641666667],[118.0177065,38.694582],[118.102825472222,38.7497221944444],[118.147009333333,38.7985562777778],[118.250066666667,38.9121953055556],[118.250388527778,38.9732445277778],[117.976432583333,39.0048488888889]]]},"properties":{"pid":16,"name":"天津港锚地","guid":"3a8214b4-7e59-4d32-9ce9-1e0e4686045d"}},{"type":"Feature","geometry":{"type":"Polygon","coordinates":[[[117.958065527778,38.4830304444444],[118.071164305556,38.3269260833333],[118.6044565,38.49143175],[118.429966083333,38.7097712777778],[117.958065527778,38.4830304444444]]]},"properties":{"pid":15,"name":"黄骅港锚地","guid":"e9564cd3-0a63-452f-9585-6dc5792552d8"}},{"type":"Feature","geometry":{"type":"Polygon","coordinates":[[[118.927214666667,39.0943063055556],[119.096080694444,38.9111727222222],[119.256236916667,38.9677608888889],[119.328380972222,39.0239973888889],[119.370653277778,39.0797209166667],[119.407867777778,39.1743965],[119.305829388889,39.2616246666667],[119.193176611111,39.2303835555556],[119.174132222222,39.2254654722222],[119.149060083333,39.2356561111111],[118.927214666667,39.0943063055556]]]},"properties":{"pid":18,"name":"京唐锚地","guid":"e71c4875-f267-43e5-916a-b6fb4aa479e1"}},{"type":"Feature","geometry":{"type":"Polygon","coordinates":[[[119.600608388889,39.8625539166667],[119.564355861111,39.7158088055556],[119.700893333333,39.6168913611111],[119.914281916667,39.7174119722222],[120.000557138889,39.8654864166667],[119.695123416667,39.9009918611111],[119.655403472222,39.8696861111111],[119.600608388889,39.8625539166667]]]},"properties":{"pid":19,"name":"秦皇岛锚地","guid":"59fe1d64-2b52-471d-8be9-7a649863539d"}},{"type":"Feature","geometry":{"type":"Polygon","coordinates":[[[109.6788009,20.41249794],[109.6779584,20.41244712],[109.6771146,20.41247062],[109.6762761,20.41256823],[109.6754495,20.41273922],[109.674267,20.41303867],[109.6732345,20.41336313],[109.6722452,20.41380189],[109.6713116,20.41434935],[109.6235897,20.44608382],[109.6230166,20.44649617],[109.6224754,20.44694958],[109.6221626,20.44723187],[109.6215281,20.44786046],[109.6209549,20.44854537],[109.6204479,20.44928065],[109.6199596,20.45006457],[109.6195114,20.45086766],[109.6191421,20.45171001],[109.6188553,20.45258386],[109.6184281,20.45413263],[109.6182086,20.45513422],[109.6180974,20.45615353],[109.6179906,20.45808758],[109.6179831,20.4589842],[109.6180594,20.45987759],[109.6182188,20.46075996],[109.6184599,20.46162358],[109.6187807,20.46246089],[109.6191782,20.46326457],[109.6196492,20.4640276],[109.6201893,20.4647433],[109.6207939,20.46540541],[109.6221138,20.46672148],[109.6227913,20.46733539],[109.6229744,20.46748607],[109.6234531,20.46785535],[109.6235218,20.46790494],[109.6243884,20.46846251],[109.6253098,20.46892384],[109.6262754,20.46928362],[109.6264891,20.46935038],[109.626793,20.46943987],[109.6678315,20.4807905],[109.6686106,20.48097137],[109.669402,20.48108667],[109.6702003,20.48113561],[109.7090263,20.48189283],[109.7099362,20.48186735],[109.7108396,20.48175569],[109.7117284,20.48155886],[109.7125945,20.48127863],[109.7134301,20.48091753],[109.7142276,20.4804788],[109.7143116,20.4804273],[109.7149352,20.48001018],[109.7155243,20.47954558],[109.7188736,20.47668455],[109.7198122,20.47576423],[109.7198275,20.47574707],[109.7204068,20.4750285],[109.7209143,20.47425755],[109.7213453,20.47344137],[109.7216958,20.47258753],[109.7219626,20.47170394],[109.7221433,20.47079878],[109.722236,20.46988046],[109.72224,20.46895747],[109.7214084,20.44999461],[109.7213893,20.44967866],[109.7212291,20.44759775],[109.7211028,20.44661919],[109.7208766,20.44565879],[109.720553,20.44472672],[109.7201352,20.44383285],[109.7196278,20.44298666],[109.7190361,20.44219709],[109.7183664,20.44147252],[109.7176258,20.44082061],[109.6854373,20.4153041],[109.6851645,20.41509563],[109.6843481,20.41449482],[109.6836254,20.41401184],[109.6828619,20.4135963],[109.6820639,20.41325162],[109.681238,20.41298063],[109.6807039,20.41283186],[109.6799227,20.41264909],[109.679129,20.41253227],[109.6788009,20.41249794]]]},"properties":{"pid":26,"name":"雷州锚地","guid":"4bda5d3f-2d83-4d88-93a3-9c7284965074"}},{"type":"Feature","geometry":{"type":"Polygon","coordinates":[[[119.87595,26.49003],[119.92401,26.50355],[119.97482,26.50355],[120.0210974,26.49174282],[120.05854104,26.49350963],[120.09416077,26.5107922],[120.12863,26.52567],[120.19592,26.50109],[120.26321,26.46176],[120.29343,26.39289],[120.22751,26.3732],[120.09018,26.37074],[119.99405,26.3769],[119.9138305,26.39875507],[119.92541764,26.42489144],[119.87869,26.43471],[119.87595,26.49003]]]},"properties":{"pid":50,"name":"宁德1号锚地","guid":"24da1e13-cbbf-4559-a1e0-17c3d788481d"}},{"type":"Feature","geometry":{"type":"Polygon","coordinates":[[[121.28632,40.64799],[121.23413,40.5771],[121.23413,40.49778],[121.23413,40.39954],[121.24786,40.27602],[121.27470015,40.19594509],[121.47296904,40.19594509],[121.51978,40.23829],[121.63788,40.37025],[121.59393,40.53536],[121.50055,40.67507],[121.38794,40.67507],[121.28632,40.64799]]]},"properties":{"pid":53,"name":"锦州2号锚地","guid":"99736e92-d755-4222-a837-8ad5a90109a6"}},{"type":"Feature","geometry":{"type":"Polygon","coordinates":[[[121.03712503,40.75010349],[121.11603,40.76666],[121.19293,40.73129],[121.17645,40.66049],[121.10229,40.63548],[121.04055826,40.70522302],[121.03712503,40.75010349]]]},"properties":{"pid":52,"name":"葫芦岛锚地","guid":"7cb13c1c-a3ff-4bf0-8cdf-ec3c2e3f21af"}},{"type":"Feature","geometry":{"type":"Polygon","coordinates":[[[119.173042,38.620728],[119.085244,38.785876],[118.710239,38.952803],[118.52757845,38.90727737],[118.37284864,38.93810465],[118.273838,38.932008],[118.259496,38.918753],[118.246632,38.8939],[118.248064,38.88921],[118.263335,38.866309],[118.264963,38.864622],[118.362867,38.782016],[118.3641,38.781155],[118.368358,38.779437],[119.162725,38.607031],[119.168245,38.609328],[119.173042,38.620728]]]},"properties":{"pid":20,"name":"曹妃甸锚地","guid":"1c5a1c8f-1db7-4327-97bf-a32db61d90d4"}},{"type":"Feature","geometry":{"type":"Polygon","coordinates":[[[113.104535,21.63225],[113.111238,21.640962],[113.043062,21.719761],[113.042588,21.720221],[113.041273,21.721177],[113.040717,21.721466],[112.999676,21.742467],[112.997124,21.742759],[112.963128,21.738122],[112.960525,21.737703],[112.956952,21.736444],[112.867312,21.667956],[112.866768,21.666356],[112.86671,21.665743],[112.866964,21.663659],[112.867328,21.662698],[112.86785,21.661752],[112.868067,21.661469],[112.871904,21.659023],[113.104535,21.63225]]]},"properties":{"pid":21,"name":"台山锚地","guid":"6fc3b857-dc02-4a99-87ac-bf190e5bc08a"}},{"type":"Feature","geometry":{"type":"Polygon","coordinates":[[[121.9676837,30.50405919],[122.17990008,30.52402394],[122.20972624,30.43082002],[122.00544921,30.4184231],[121.9676837,30.50405919]]]},"properties":{"pid":138,"name":"洋山1号锚地","guid":"15c43791-8879-4147-9a1f-60038a0875b7"}},{"type":"Feature","geometry":{"type":"Polygon","coordinates":[[[122.475583361111,30.5005213333333],[122.475905222222,30.4673288888889],[122.547144694444,30.46603425],[122.547037416667,30.4917389166667],[122.506589694444,30.5000591111111],[122.475583361111,30.5005213333333]]]},"properties":{"pid":139,"name":"洋山2号锚地","guid":"ac66da73-44b9-427a-b9bd-8a2baa91bc7a"}},{"type":"Feature","geometry":{"type":"Polygon","coordinates":[[[122.475122666667,30.5005341666667],[122.475390888889,30.4667868888889],[122.455113388889,30.4665556944444],[122.455274333333,30.4788078055556],[122.475122666667,30.5005341666667]]]},"properties":{"pid":140,"name":"鼠浪湖4号锚地","guid":"1f2db435-7064-4e8f-a032-1ff218e69cfb"}},{"type":"Feature","geometry":{"type":"Polygon","coordinates":[[[122.550362361111,30.9103235833333],[122.755497722222,30.9537615277778],[122.756028111111,31.0869366666667],[122.553896833333,31.0852828055556],[122.550362361111,30.9103235833333]]]},"properties":{"pid":141,"name":"长江口2号锚地","guid":"edd8d7ff-6bbe-4736-9fd2-a0ea5ce100aa"}},{"type":"Feature","geometry":{"type":"Polygon","coordinates":[[[122.755499555556,31.1219959166667],[122.553582861111,31.1194241944444],[122.5555395,31.2665729722222],[122.755525,31.2669398055556],[122.755499555556,31.1219959166667]]]},"properties":{"pid":142,"name":"长江口1号锚地","guid":"5e0ae9b7-44f5-4c90-bd46-a02b0a397bea"}},{"type":"Feature","geometry":{"type":"Polygon","coordinates":[[[122.334073,31.10386125],[122.492286194444,31.1035660833333],[122.514387583333,31.1202838611111],[122.514173,31.2659565277778],[122.334357722222,31.2668735833333],[122.334073,31.10386125]]]},"properties":{"pid":143,"name":"长江口3号锚地","guid":"db18510a-bfa8-46e2-bb22-787f8c9e1705"}},{"type":"Feature","geometry":{"type":"Polygon","coordinates":[[[122.335574138889,31.26953275],[122.866244555556,31.2694177777778],[122.867127805556,31.58493375],[122.331490277778,31.5889537777778],[122.335574138889,31.26953275]]]},"properties":{"pid":144,"name":"长江口4号锚地","guid":"f61304fd-97ae-441f-866f-21ee517c9115"}},{"type":"Feature","geometry":{"type":"Polygon","coordinates":[[[122.3616,30.77232],[122.32015339,30.76511998],[122.33584042,30.72402347],[122.3664176,30.71729051],[122.3752996,30.74349904],[122.3616,30.77232]]]},"properties":{"pid":148,"name":"马迹山4号锚地","guid":"fc27e424-27e5-45ab-91d1-3750468f7451"}},{"type":"Feature","geometry":{"type":"Polygon","coordinates":[[[122.513476722222,30.9253653611111],[122.514335027778,30.9781794166667],[122.495666861111,30.9908725],[122.300616611111,31.0296771666667],[122.300616611111,30.9261016388889],[122.513476722222,30.9253653611111]]]},"properties":{"pid":145,"name":"长江口5号锚地","guid":"23d8e050-2e9d-46ea-a9a3-c136d324225b"}},{"type":"Feature","geometry":{"type":"Polygon","coordinates":[[[122.36709563,30.6665045],[122.36087291,30.63826143],[122.37653701,30.6104718],[122.39584892,30.60077586],[122.41241,30.64952],[122.36709563,30.6665045]]]},"properties":{"pid":147,"name":"马迹山3号锚地","guid":"6804046d-d9e3-454f-851b-0f1d8d150850"}},{"type":"Feature","geometry":{"type":"Polygon","coordinates":[[[122.827992694444,30.4085485],[122.741410972222,30.46488275],[122.688517833333,30.47459225],[122.654166888889,30.4375984444444],[122.723695111111,30.3816140555556],[122.827992694444,30.4085485]]]},"properties":{"pid":150,"name":"马迹山1号锚地","guid":"922c7c19-550e-4ca5-8424-a45922b9c037"}},{"type":"Feature","geometry":{"type":"Polygon","coordinates":[[[121.7593502,30.37477208],[121.87326411,30.17055581],[121.73400381,30.11340258],[121.60718897,30.33940918],[121.7593502,30.37477208]]]},"properties":{"pid":151,"name":"宁波锚地","guid":"5e3da83f-277e-46e4-af8a-95a1119fac40"}},{"type":"Feature","geometry":{"type":"Polygon","coordinates":[[[121.99734,30.01614],[122.00798,30.00366],[122.02372931,29.97367483],[121.99722909,29.96001185],[121.97255276,29.97107251],[121.9611802,30.00006603],[121.97639,30.01436],[121.99734,30.01614]]]},"properties":{"pid":152,"name":"宁波2号锚地","guid":"05269c11-988b-4b49-bcea-323b5f49cc9a"}},{"type":"Feature","geometry":{"type":"Polygon","coordinates":[[[121.90533,29.97362],[121.91503816,29.98037201],[121.9261425,29.97200771],[121.9169157,29.95913459],[121.90121,29.96321],[121.90533,29.97362]]]},"properties":{"pid":153,"name":"宁波3号锚地","guid":"2b2f158f-b632-4802-a91e-e35d924f28fe"}},{"type":"Feature","geometry":{"type":"Polygon","coordinates":[[[121.81111752,30.03382894],[121.83541833,30.03489708],[121.83740317,30.00586728],[121.83107315,29.99690116],[121.81272685,29.99643658],[121.81111752,30.03382894]]]},"properties":{"pid":154,"name":"宁波4号锚地","guid":"60088a9b-4625-4441-9c74-d531b1c91c28"}},{"type":"Feature","geometry":{"type":"Polygon","coordinates":[[[122.18084,29.91903],[122.20728,29.92677],[122.24058,29.93421],[122.2629,29.93451],[122.28075,29.92528],[122.28109,29.90981],[122.26976,29.89731],[122.24916,29.88719],[122.23475,29.87349],[122.21758,29.86248],[122.19664,29.87766],[122.17878,29.8988],[122.18084,29.91903]]]},"properties":{"pid":155,"name":"宁波5号锚地","guid":"256f9f6b-d300-4b81-b98f-104339fd7010"}},{"type":"Feature","geometry":{"type":"Polygon","coordinates":[[[113.62524,22.7828],[113.62936,22.77679],[113.63348,22.77061],[113.63949,22.76729],[113.64824,22.76697],[113.65276849,22.76131072],[113.65082,22.75384],[113.64017,22.7532],[113.63073,22.75336],[113.62782,22.76048],[113.62311448,22.76924874],[113.61479963,22.77993249],[113.61923,22.7828],[113.62524,22.7828]]]},"properties":{"pid":156,"name":"南沙1号锚地","guid":"e1de9453-11b9-4499-88fe-ba8c40ea7db9"}},{"type":"Feature","geometry":{"type":"Polygon","coordinates":[[[113.86234529,22.10493707],[113.91724,22.10462],[113.92006643,22.05562494],[113.84957798,22.04627756],[113.85226018,22.09191477],[113.86234529,22.10493707]]]},"properties":{"pid":157,"name":"南沙2号锚地","guid":"578e7c87-85ce-433f-8f81-7d46af6e4a9f"}},{"type":"Feature","geometry":{"type":"Polygon","coordinates":[[[113.8642131,22.10771967],[113.92145144,22.10786877],[113.92681586,22.07357154],[113.8872,22.07493],[113.86316,22.07461],[113.8642131,22.10771967]]]},"properties":{"pid":158,"name":"蛇口1号锚地","guid":"e6425304-2e8b-405e-993b-dac5d437b908"}},{"type":"Feature","geometry":{"type":"Polygon","coordinates":[[[113.86354923,22.00171151],[113.94272804,22.04169476],[113.96461487,22.00310416],[113.8924098,21.95942841],[113.86354923,22.00171151]]]},"properties":{"pid":159,"name":"蛇口2号锚地","guid":"c0418b65-ed5e-4704-b364-928a3c287d6d"}},{"type":"Feature","geometry":{"type":"Polygon","coordinates":[[[113.61411853,22.7899458],[113.62382812,22.79424843],[113.63554,22.78502],[113.6452232,22.77303879],[113.62623316,22.76349222],[113.61494,22.77774],[113.61411853,22.7899458]]]},"properties":{"pid":160,"name":"东莞1号锚地","guid":"8d0d42f4-cadc-4313-b409-8401bd2c54be"}},{"type":"Feature","geometry":{"type":"Polygon","coordinates":[[[113.558907,22.92358499],[113.56660494,22.91530895],[113.5686166,22.90802069],[113.5706298,22.89830142],[113.5695301,22.89120991],[113.56609687,22.89190178],[113.5613,22.90265],[113.55829,22.91024],[113.5556899,22.91613748],[113.55359623,22.92170748],[113.558907,22.92358499]]]},"properties":{"pid":161,"name":"东莞2号锚地","guid":"438d0a03-7dbe-43b3-9fcd-34d20c3c408f"}},{"type":"Feature","geometry":{"type":"Polygon","coordinates":[[[109.3949966,21.06369429],[109.394068,21.06373913],[109.393148,21.06387322],[109.3922452,21.06409531],[109.391368,21.06440334],[109.3905246,21.06479445],[109.3897227,21.06526499],[109.3889699,21.06581059],[109.3882732,21.06642617],[109.387639,21.06710602],[109.3870733,21.06784379],[109.3865813,21.06863263],[109.3861675,21.06946521],[109.3858359,21.07033377],[109.3855895,21.07123024],[109.3854306,21.07214627],[109.3853607,21.07307336],[109.3812485,21.22525307],[109.3812647,21.22613007],[109.3813606,21.22700196],[109.3815353,21.22786153],[109.3817875,21.22870165],[109.3821149,21.22951538],[109.382515,21.23029596],[109.3825455,21.23034937],[109.3830744,21.23117443],[109.3836843,21.23194153],[109.3843689,21.23264275],[109.3851211,21.23327083],[109.4706466,21.29759044],[109.4714189,21.2981147],[109.4722383,21.2985618],[109.4726045,21.29873918],[109.4734239,21.29909026],[109.4742722,21.29936415],[109.5130753,21.3099385],[109.5139152,21.31012754],[109.5139686,21.31013707],[109.5148126,21.31024958],[109.5156631,21.31028718],[109.515686,21.31028718],[109.5164865,21.31025389],[109.516601,21.31024435],[109.5175929,21.31010953],[109.5185655,21.30987258],[109.5195082,21.30953604],[109.520411,21.30910355],[109.521264,21.30857977],[109.5232935,21.30718359],[109.5239983,21.30664943],[109.5246512,21.30605291],[109.5252467,21.30539907],[109.5257798,21.3046934],[109.5258256,21.30462664],[109.5262956,21.30386818],[109.5266935,21.3030695],[109.5270158,21.30223745],[109.5272598,21.30137916],[109.5274234,21.30050199],[109.5275302,21.29973333],[109.527604,21.29899483],[109.5291222,21.27416115],[109.5291402,21.27357292],[109.5291402,21.27285767],[109.5290994,21.27197235],[109.5289776,21.27109452],[109.5287756,21.2702316],[109.5284952,21.26939087],[109.5281388,21.26857945],[109.5277093,21.26780419],[109.4048761,21.06828026],[109.4043195,21.06747149],[109.4036835,21.06672354],[109.4029747,21.06604416],[109.4022005,21.0654404],[109.4013689,21.06491852],[109.4004885,21.06448395],[109.3995685,21.06414118],[109.3986184,21.06389377],[109.397648,21.06374429],[109.3966675,21.06369429],[109.3949966,21.06369429]]]},"properties":{"pid":27,"name":"铁山锚地","guid":"ed741390-ef30-49bc-9565-ec7d4efec58d"}},{"type":"Feature","geometry":{"type":"Polygon","coordinates":[[[108.8499985,21.06201757],[108.8490522,21.06206408],[108.848115,21.06220318],[108.8471959,21.06243353],[108.8463039,21.06275289],[108.6553554,21.14189641],[108.6552352,21.14194719],[108.6530151,21.14290277],[108.6519961,21.14341472],[108.6504473,21.14431118],[108.6496923,21.14479641],[108.6489856,21.1453497],[108.6479709,21.14622326],[108.6472459,21.14691625],[108.6465967,21.14768075],[108.6456735,21.14889001],[108.6456404,21.14893363],[108.52464933,21.33433779],[108.49120506,21.48019971],[108.49238704,21.51708377],[108.6987227,21.50097645],[108.6998554,21.50051947],[108.706699,21.49724074],[108.70718,21.49699348],[108.7072182,21.4969725],[108.7083575,21.49623708],[108.7084186,21.49619131],[108.7093054,21.49543856],[108.7095343,21.49521921],[108.710066,21.49466751],[108.7105523,21.49407535],[108.7106591,21.49393421],[108.7109549,21.49352107],[108.7117026,21.49241671],[108.7121677,21.49165636],[108.7365665,21.4472838],[108.737075,21.44620631],[108.8631126,21.12989734],[108.8634405,21.12892772],[108.8636639,21.12792881],[108.8637802,21.12691187],[108.8637881,21.12588833],[108.8613085,21.07122944],[108.8612231,21.0703138],[108.861051,21.06941045],[108.8607936,21.06852759],[108.8604533,21.06767324],[108.8600332,21.06685517],[108.8595372,21.0660808],[108.8589697,21.06535717],[108.8583359,21.06469085],[108.8576415,21.06408789],[108.8568929,21.06355377],[108.8560969,21.06309334],[108.8552606,21.06271079],[108.8543917,21.06240958],[108.8534981,21.06219246],[108.8525879,21.06206139],[108.8516693,21.06201757],[108.8499985,21.06201757]]]},"properties":{"pid":28,"name":"钦州锚地","guid":"1760870e-c9e0-4e6e-b887-9d97c917899e"}},{"type":"Feature","geometry":{"type":"Polygon","coordinates":[[[108.3475998,21.29921728],[108.3402529,21.29991115],[108.3394392,21.30039402],[108.3358678,21.30470446],[108.3357076,21.30508593],[108.3353414,21.30611841],[108.3348254,21.31082048],[108.3348157,21.31170831],[108.3348878,21.31259327],[108.3570969,21.48622493],[108.3592233,21.49113934],[108.40714234,21.51308289],[108.450704,21.51996945],[108.47507991,21.50952902],[108.5108449,21.35227514],[108.5101497,21.35150238],[108.5084788,21.34983536],[108.5077836,21.3492061],[108.5070306,21.34864729],[108.506227,21.3481642],[108.5053802,21.3477614],[108.5044983,21.34744268],[108.3475998,21.29921728]]]},"properties":{"pid":29,"name":"防城锚地","guid":"b473299f-ec43-4705-b487-6149efa3a65a"}},{"type":"Feature","geometry":{"type":"Polygon","coordinates":[[[111.0116653,20.93204185],[111.0111232,20.93205713],[110.8032909,20.9437816],[110.8030921,20.94379488],[110.7549659,20.94751039],[110.753963,20.94764111],[110.7529794,20.94787632],[110.7528955,20.94790111],[110.7526892,20.94796458],[110.752117,20.94814769],[110.7515149,20.94836262],[110.7509885,20.94857052],[110.7503943,20.94882866],[110.7501654,20.94893738],[110.7494285,20.94932736],[110.7487281,20.94977965],[110.7480695,20.95029084],[110.7474577,20.9508571],[110.7470457,20.9512729],[110.7464913,20.9518825],[110.7059411,21.00050082],[110.705389,21.00123057],[110.6620541,21.06456408],[110.6615587,21.06537046],[110.6611449,21.06622159],[110.6608167,21.06710924],[110.6605772,21.06802483],[110.6604288,21.06895951],[110.6603729,21.06990424],[110.6604101,21.0708499],[110.6605399,21.07178734],[110.6607612,21.0727075],[110.6610717,21.07360148],[110.6614686,21.07446065],[110.6619479,21.07527669],[110.6688906,21.0858682],[110.669413,21.08658994],[110.6699999,21.08726028],[110.6706463,21.08787349],[110.6713466,21.08842431],[110.6720948,21.08890801],[110.6968217,21.10331612],[110.6979688,21.10388593],[111.034715,21.24405317],[111.0356079,21.24437415],[111.036528,21.24460568],[111.0374664,21.2447455],[111.038414,21.24479226],[111.0384521,21.24479226],[111.0393841,21.24474704],[111.0403073,21.24461179],[111.0412131,21.2443878],[111.0420929,21.24407716],[111.0429386,21.2436828],[111.043742,21.24320841],[111.0444958,21.24265846],[111.0451928,21.24203812],[111.0458264,21.2413532],[111.0463907,21.24061016],[111.0464365,21.2405434],[111.0469315,21.23973981],[111.0473453,21.2388916],[111.0476741,21.23800695],[111.0479147,21.23709434],[111.0480648,21.23616256],[111.0481229,21.23522057],[111.0480884,21.23427741],[111.0229267,20.94084517],[111.0227984,20.93990113],[111.0225775,20.93897439],[111.022266,20.93807403],[111.021867,20.93720887],[111.0213844,20.9363874],[111.020823,20.93561765],[111.0201883,20.93490717],[111.0194864,20.93426292],[111.0187243,20.9336912],[111.0179094,20.93319762],[111.0170497,20.93278702],[111.0161536,20.93246342],[111.01523,20.93222998],[111.0142877,20.932089],[111.0133362,20.93204185],[111.0116653,20.93204185]]]},"properties":{"pid":30,"name":"湛江锚地","guid":"3734f4ae-46ae-431f-b1ee-d28187de963a"}},{"type":"Feature","geometry":{"type":"Polygon","coordinates":[[[114.641907,22.32757974],[114.6409086,22.32741794],[114.6398989,22.32736072],[114.6388886,22.32740871],[114.6378888,22.32756137],[114.6369103,22.32781707],[114.6359636,22.32817303],[114.635059,22.32862541],[114.6342063,22.3291693],[114.6337867,22.32946875],[114.6330514,22.33004896],[114.6323753,22.33069723],[114.6317647,22.33140755],[114.6312252,22.33217333],[114.630762,22.33298747],[114.6303793,22.33384239],[114.6300806,22.33473018],[114.6298687,22.33564259],[114.6297456,22.33657116],[114.6297124,22.33750726],[114.6297695,22.33844221],[114.6299162,22.33936734],[114.6719313,22.54093594],[114.6720635,22.54148874],[114.6721398,22.54177103],[114.6724021,22.54259459],[114.6727366,22.54339159],[114.6731406,22.54415574],[114.6736365,22.5450007],[114.6741543,22.54579212],[114.6747466,22.54652949],[114.6754077,22.54720583],[114.6761314,22.54781474],[114.6769108,22.54835046],[114.6777386,22.54880792],[114.6786069,22.54918279],[114.6795075,22.54947153],[114.6804319,22.5496714],[114.6813714,22.54978052],[114.6816842,22.5498015],[114.6817316,22.54980456],[114.7993616,22.55711733],[114.800171,22.55713388],[114.8009789,22.55708305],[114.8017798,22.55696518],[114.8019706,22.55692894],[114.8023351,22.55685242],[114.8025258,22.55680855],[114.8032683,22.55660655],[114.8038252,22.55643108],[114.8045499,22.55617079],[114.8052517,22.55585398],[114.8053814,22.55578913],[114.8062233,22.55531446],[114.8070139,22.55475856],[114.8074564,22.55441333],[114.8080811,22.55388214],[114.8168473,22.54576637],[114.8174104,22.54520035],[114.8179252,22.54459004],[114.8180701,22.54440312],[114.8183938,22.54396056],[114.8887063,22.44189452],[114.8892179,22.44106584],[114.8896441,22.44019013],[114.8899805,22.43927618],[114.8902239,22.43833316],[114.8903716,22.43737053],[114.8904708,22.4364035],[114.8905215,22.4354388],[114.8904762,22.43447384],[114.8903354,22.43351813],[114.8901005,22.43258111],[114.8897737,22.43167202],[114.8893583,22.43079985],[114.8888585,22.4299732],[114.8882791,22.42920023],[114.8876258,22.42848857],[114.8869052,22.42784525],[114.808597,22.36464144],[114.8078658,22.36410555],[114.8070878,22.3636401],[114.8062699,22.36324913],[114.8054191,22.36293604],[114.8045428,22.36270356],[114.641907,22.32757974]]]},"properties":{"pid":32,"name":"惠州锚地","guid":"f6236b73-87b5-4eae-906d-4579515cdb44"}},{"type":"Feature","geometry":{"type":"Polygon","coordinates":[[[115.6543487,22.58233054],[115.6533656,22.58236731],[115.6523914,22.58250311],[115.6514358,22.58273655],[115.6505086,22.58306524],[115.6496194,22.58348582],[115.6487771,22.58399401],[115.6479904,22.58458461],[115.6472674,22.58525159],[115.6466153,22.58598813],[115.646041,22.58678673],[115.6459647,22.58690498],[115.6455013,22.58770395],[115.6453106,22.58807207],[115.6448329,22.58914914],[115.6444887,22.59027605],[115.644359,22.59081583],[115.6442771,22.59118906],[115.6275306,22.67528978],[115.6273915,22.67622147],[115.6273432,22.67716223],[115.627386,22.67810327],[115.6275196,22.67903575],[115.6277427,22.67995096],[115.6280532,22.68084032],[115.6284482,22.6816955],[115.628924,22.6825085],[115.6294762,22.68327169],[115.6294915,22.68329076],[115.6301666,22.68404988],[115.6309173,22.68473449],[115.6317352,22.68533713],[115.6326114,22.68585125],[115.6335365,22.68627124],[115.6345003,22.68659253],[115.6354923,22.68681162],[115.6356296,22.6868345],[115.6361703,22.68690911],[115.6721048,22.69084397],[115.6730766,22.69090141],[115.6740493,22.6908615],[115.675888,22.69069365],[115.6770618,22.69051376],[115.6980045,22.6859819],[115.698958,22.68572432],[115.6998804,22.68537145],[115.7006357,22.68503766],[115.7016152,22.68453686],[115.7020424,22.684287],[115.702752,22.68382959],[115.7034193,22.68331242],[115.7040393,22.68273937],[115.7047412,22.68203174],[115.7053646,22.68133997],[115.7059191,22.68059179],[115.7063996,22.67979405],[115.7068016,22.67895405],[115.7068474,22.67884533],[115.7070451,22.67833612],[115.7071825,22.67795083],[115.7074642,22.67701407],[115.7076505,22.67605376],[115.7077394,22.6750796],[115.7077547,22.67470576],[115.7077394,22.6736343],[115.7076064,22.67257101],[115.7073574,22.67152879],[115.7069953,22.67052025],[115.6910575,22.63279861],[115.6904607,22.63161729],[115.6645131,22.58791803],[115.6639734,22.5871049],[115.663355,22.5863499],[115.662664,22.58566062],[115.6619076,22.58504399],[115.6610932,22.5845062],[115.660229,22.58405267],[115.6584513,22.5832306],[115.6575029,22.58285104],[115.6565198,22.58257298],[115.655513,22.58239948],[115.6544936,22.58233245],[115.6543487,22.58233054]]]},"properties":{"pid":33,"name":"汕尾红海湾电厂锚地","guid":"e5e39a08-a8f3-4bb8-937c-466cc533a8c2"}},{"type":"Feature","geometry":{"type":"Polygon","coordinates":[[[117.2257468,23.37930114],[117.2247639,23.37931214],[117.2158298,23.37986145],[117.2148584,23.37997008],[117.2139026,23.38017503],[117.212972,23.38047427],[117.2120759,23.38086483],[117.2112233,23.38134279],[117.2106129,23.38172617],[117.210394,23.38186776],[117.2029096,23.38685166],[117.2020728,23.38747573],[117.2013072,23.38818534],[117.2006216,23.38897243],[117.2000236,23.38982804],[117.1533546,23.4648269],[117.1531649,23.46514497],[117.1450473,23.47936235],[117.1447053,23.48001751],[117.1444137,23.4806966],[117.1442535,23.48111241],[117.1439607,23.48199508],[117.143753,23.48290155],[117.1436323,23.48382365],[117.1436018,23.48419176],[117.1435691,23.48512742],[117.143626,23.48606191],[117.1437719,23.4869867],[117.1440054,23.48789332],[117.1443245,23.4887735],[117.1447262,23.48961916],[117.1448864,23.48991862],[117.1453145,23.4906423],[117.1453679,23.49072432],[117.1459949,23.49158159],[117.1461322,23.49174944],[117.146915,23.4925986],[117.1477924,23.49334968],[117.1480136,23.49351752],[117.1487075,23.49399824],[117.1494402,23.4944174],[117.1502063,23.49477188],[117.1510001,23.49505905],[117.1759635,23.50289062],[117.1764453,23.50302834],[117.1769031,23.50314659],[117.1777455,23.5033251],[117.1786003,23.5034289],[117.3240776,23.51462885],[117.3250552,23.51465512],[117.3260306,23.51458372],[117.326994,23.51441536],[117.3279358,23.51415172],[117.3288466,23.51379544],[117.3297173,23.51335006],[117.3315179,23.51231246],[117.3323446,23.511779],[117.3331135,23.51116527],[117.3333272,23.51097644],[117.3339228,23.51040337],[117.334468,23.5097821],[117.3349588,23.50911706],[117.3413293,23.49967568],[117.3417972,23.4989086],[117.3421927,23.49810185],[117.3425127,23.49726224],[117.3427543,23.49639683],[117.3429155,23.49551292],[117.342995,23.49461795],[117.3471073,23.39843608],[117.3471017,23.39748441],[117.3470037,23.39653777],[117.3464086,23.39264678],[117.3462273,23.39174634],[117.3460518,23.39104634],[117.3457703,23.39012],[117.3453986,23.38922601],[117.3449404,23.3883731],[117.3444002,23.38756962],[117.3437833,23.38682341],[117.3430957,23.3861418],[117.3423442,23.38553142],[117.341536,23.38499827],[117.3406792,23.38454754],[117.339782,23.38418366],[117.3388532,23.38391017],[117.337902,23.38372975],[117.3369376,23.38364418],[117.2257468,23.37930114]]]},"properties":{"pid":34,"name":"潮州锚地","guid":"6e1758c6-ec3b-4bdb-85cb-4d9cd0162380"}},{"type":"Feature","geometry":{"type":"Polygon","coordinates":[[[117.5627206,23.47456102],[117.5609662,23.47388526],[117.559115,23.47355668],[117.5581743,23.47352687],[117.5563061,23.47373757],[117.5553957,23.47397615],[117.5536642,23.47470879],[117.5521043,23.47575835],[117.551407,23.47639034],[117.5491048,23.47875055],[117.5485425,23.47950085],[117.5470766,23.48292959],[117.50811708,23.69733586],[117.54180563,23.72543003],[117.56372183,23.72410201],[117.58700341,23.71064493],[117.6765761,23.75376551],[117.6779547,23.7535606],[117.6780234,23.75354534],[117.6789324,23.75329695],[117.6798134,23.75296247],[117.6806583,23.75254497],[117.6814592,23.75204833],[117.6822087,23.75147711],[117.6828999,23.7508366],[117.6835265,23.75013271],[117.6840826,23.74937193],[117.6845632,23.74856129],[117.6849637,23.74770827],[117.6852806,23.74682075],[117.6855107,23.74590692],[117.6856522,23.74497521],[117.6857056,23.74445641],[117.6857562,23.74358307],[117.6857289,23.74270867],[117.6856238,23.7418402],[117.6854417,23.74098454],[117.685184,23.74014852],[117.6851001,23.73991392],[117.6848351,23.73925048],[117.5706384,23.48103363],[117.5696864,23.4793518],[117.5684231,23.47788928],[117.5676897,23.4772584],[117.5660547,23.47622804],[117.5627206,23.47456102]]]},"properties":{"pid":37,"name":"东山锚地","guid":"818ae28e-c8e2-4526-800b-dd3970e5abc0"}},{"type":"Feature","geometry":{"type":"Polygon","coordinates":[[[118.2649975,24.08951654],[118.2631045,24.08968707],[118.2612795,24.09021797],[118.2600553,24.09079789],[118.2584496,24.09183507],[118.2570744,24.09316284],[118.11746921,24.20710498],[118.25344433,24.34535274],[118.3347689,24.34867613],[118.35515369,24.3613824],[118.5221647,24.26198049],[118.5222467,24.25983582],[118.5218622,24.2577243],[118.5211644,24.25554188],[118.5203938,24.2537668],[118.5193647,24.25218839],[118.3654061,24.09314736],[118.3639145,24.09188557],[118.3622031,24.09094299],[118.3603393,24.09035671],[118.3583966,24.09014978],[118.2649975,24.08951654]]]},"properties":{"pid":39,"name":"漳州锚地","guid":"382b5ac6-a068-4dc5-97ee-987c4f2d5562"}},{"type":"Feature","geometry":{"type":"Polygon","coordinates":[[[119.892643944444,39.9105655],[119.884275472222,39.9052983888889],[119.873010194444,39.9002778055556],[119.85852625,39.8952568611111],[119.842433,39.8922111944444],[119.829418916667,39.9493484444444],[119.843462972222,39.9551056111111],[119.892643944444,39.9105655]]]},"properties":{"pid":61,"name":"山海关船厂锚地","guid":"11c7512f-7e43-4910-bb55-e5434e0d5bc7"}},{"type":"Feature","geometry":{"type":"Polygon","coordinates":[[[122.015164916667,40.4648245555556],[121.971609888889,40.4688606944444],[121.927719472222,40.4935495833333],[121.974711777778,40.6272246388889],[122.027593277778,40.6237743333333],[122.057007361111,40.5856845277778],[122.063444666667,40.5649858055556],[122.0909105,40.5490091944444],[122.065161277778,40.5080721111111],[122.015164916667,40.4648245555556]]]},"properties":{"pid":60,"name":"营口锚地","guid":"6fda1fef-d365-47dc-875c-3995c02ad5e5"}},{"type":"Feature","geometry":{"type":"Polygon","coordinates":[[[121.9735085,38.5418441666667],[121.969659888889,38.5398973888889],[121.965365194444,38.5395001666667],[121.776360194444,38.5947176111111],[121.741839694444,38.6201677777778],[121.709323194444,38.6734324166667],[121.710770388889,38.6881889444444],[121.787223111111,38.7787724166667],[121.955222305556,38.9448719722222],[121.960398194444,38.9478249722222],[122.001450638889,38.9942618611111],[122.029882055556,38.9933863333333],[122.048872083333,38.9884663333333],[122.053807361111,38.9776662222222],[122.063285111111,38.8612373333333],[122.024434194444,38.6702461944444],[121.975315194444,38.5433874444444],[121.9735085,38.5418441666667]]]},"properties":{"pid":65,"name":"大连2号锚地","guid":"90a537bd-0a6c-429b-9f85-0ce226f7252b"}},{"type":"Feature","geometry":{"type":"Polygon","coordinates":[[[116.6425836,23.00995149],[116.6418149,23.00991878],[116.6410459,23.00994673],[116.63215,23.01062193],[116.6317061,23.01066586],[116.630081,23.01086422],[116.6299615,23.01087956],[116.6298623,23.01089291],[116.6289287,23.01106516],[116.6280164,23.01132726],[116.6271338,23.01167676],[116.6262893,23.01211033],[116.6231231,23.01393566],[116.6224808,23.01434001],[116.6218718,23.01479303],[116.6208876,23.01558649],[116.6201378,23.01625769],[116.619461,23.01700253],[116.6188645,23.0178131],[116.6183546,23.01868077],[116.6133268,23.02834531],[116.6128986,23.02928732],[116.6125725,23.03026936],[116.6123522,23.03128041],[116.6122401,23.0323091],[116.6122376,23.03334388],[116.6122452,23.03349456],[116.6123562,23.03454869],[116.61302,23.03868191],[116.6132465,23.03972452],[116.6135854,23.04073619],[116.6140327,23.04170482],[116.6232872,23.0591685],[116.6238114,23.06004385],[116.6244241,23.0608597],[116.6251186,23.06160713],[116.6258874,23.06227798],[116.626722,23.06286492],[116.6276133,23.06336153],[116.6285516,23.06376239],[116.6470529,23.07054683],[116.6480053,23.07084186],[116.6489829,23.07103818],[116.6499754,23.07113374],[116.6509725,23.07112756],[116.6519638,23.07101969],[116.6529389,23.07081125],[116.6538876,23.07050444],[116.6548001,23.07010243],[116.6556668,23.06960944],[116.6564787,23.0690306],[116.6572273,23.06837195],[116.6607139,23.06497305],[116.6614094,23.06421992],[116.662022,23.06339801],[116.6625451,23.06251638],[116.6629728,23.06158475],[116.6633005,23.06061341],[116.6635244,23.05961306],[116.6674078,23.0366791],[116.6675171,23.03578485],[116.6675434,23.03488434],[116.6674866,23.03398523],[116.6673569,23.03280267],[116.6672058,23.03185625],[116.6669626,23.03092921],[116.6666296,23.03003048],[116.6662101,23.02916875],[116.6657081,23.0283523],[116.6651285,23.02758902],[116.6554239,23.0160343],[116.6553597,23.01595859],[116.6533989,23.01367167],[116.6527451,23.0129804],[116.6520272,23.01235605],[116.6512518,23.01180457],[116.6504265,23.0113312],[116.649559,23.01094042],[116.6486575,23.01063597],[116.6477308,23.01042072],[116.6467874,23.01029672],[116.6425836,23.00995149]]]},"properties":{"pid":36,"name":"汕头华能海门电厂锚地","guid":"6cf9437b-5da7-47bb-b51e-893b7d2279e8"}},{"type":"Feature","geometry":{"type":"Polygon","coordinates":[[[116.0138526,22.72030762],[116.013061,22.71981701],[116.0122262,22.71940424],[116.0113557,22.71907309],[116.0104576,22.71882658],[116.0095401,22.71866696],[116.0086115,22.7185957],[116.0076804,22.71861344],[116.0067552,22.71872003],[116.0058444,22.71891448],[115.9618914,22.7305207],[115.960944,22.7308234],[115.9600324,22.73122113],[115.959166,22.73170976],[115.9583541,22.73228418],[115.9576049,22.73293841],[115.9569264,22.73366562],[115.9563255,22.73445824],[115.9558086,22.735308],[115.9553811,22.73620604],[115.9515282,22.74549292],[115.95118,22.74647854],[115.9509395,22.74749581],[115.9508937,22.74774948],[115.9507777,22.74861093],[115.9507389,22.74947929],[115.9507389,22.74952698],[115.9508394,22.75092286],[115.9509005,22.75134438],[115.9511714,22.75261279],[115.9512858,22.75301524],[115.9516248,22.75400283],[115.9520676,22.75494847],[115.9526091,22.75584127],[115.9579191,22.76362325],[115.9579547,22.76367506],[115.96944782,22.77862827],[116.04434615,22.79641964],[116.0533527,22.76332483],[116.0532984,22.76323538],[116.041984,22.7448142],[116.0412522,22.74378008],[116.0405274,22.74288554],[116.0399314,22.74221551],[116.0392763,22.74160312],[116.0164644,22.72216724],[116.0156684,22.72155693],[116.0138526,22.72030762]]]},"properties":{"pid":38,"name":"广东陆丰甲湖湾电厂锚地","guid":"8eb125f4-a0af-413c-8ec8-0b6a2ef485a4"}},{"type":"Feature","geometry":{"type":"Polygon","coordinates":[[[118.7773722,24.64025902],[118.7709886,24.63847029],[118.71211916,24.66244846],[118.79040284,24.74737058],[118.7944798,24.7673432],[118.80510134,24.78887107],[118.87016311,24.83016484],[118.93157002,24.8622259],[118.99117022,24.8284398],[118.95238678,24.78125644],[118.8273989,24.6809087],[118.7817675,24.64339688],[118.7773722,24.64025902]]]},"properties":{"pid":41,"name":"泉州锚地","guid":"bfbef14f-da90-4ca7-8e90-afaa0aa19ebb"}},{"type":"Feature","geometry":{"type":"Polygon","coordinates":[[[119.00023898,24.87544697],[119.04456811,24.96858677],[119.0410276,24.9848283],[119.0355862,25.026228],[119.03621735,25.0340925],[119.0587479,25.03161364],[119.07111011,25.02666556],[119.08855869,25.02681886],[119.1059394,25.02098582],[119.13104488,25.02312463],[119.15293171,25.03226278],[119.2235869,24.96366978],[119.2249315,24.96101921],[119.2254296,24.9580891],[119.2250363,24.9551431],[119.2014794,24.89664765],[119.1998948,24.89393225],[119.1987321,24.89240508],[119.1972592,24.89103147],[119.1941685,24.8893426],[119.154378,24.87332417],[119.1529194,24.87279241],[119.02015949,24.84740389],[118.99226451,24.85353721],[118.98790082,24.86191671],[119.00023898,24.87544697]]]},"properties":{"pid":42,"name":"湄洲湾锚地","guid":"e7b01b86-8701-4f88-aee5-426e15f97fcd"}},{"type":"Feature","geometry":{"type":"Polygon","coordinates":[[[118.3083344,24.06848153],[118.3074836,24.06851834],[118.3066392,24.06862848],[118.3058074,24.06881114],[118.1522201,24.10957118],[118.1512114,24.10989789],[118.1502437,24.1103311],[118.1493282,24.11086581],[118.1489314,24.11112711],[118.148137,24.11170935],[118.1474046,24.11236801],[118.1467417,24.11309651],[118.1461549,24.11388757],[118.1456499,24.11473327],[118.145232,24.11562517],[118.1449052,24.11655435],[118.1446728,24.11751152],[118.12626951,24.20987265],[118.15068313,24.26524919],[118.15883704,24.32646332],[118.0933575,24.38700462],[118.0932177,24.38802822],[118.0931859,24.38906083],[118.0932624,24.39009109],[118.0934464,24.39110767],[118.0985352,24.41269504],[118.0987953,24.41360148],[118.0991408,24.41447891],[118.0995686,24.41531928],[118.1000749,24.41611489],[118.1006548,24.41685846],[118.1013033,24.41754316],[118.1020142,24.41816273],[118.1027811,24.41871149],[118.1047342,24.41997225],[118.1055584,24.42044951],[118.1064249,24.42084494],[118.1073256,24.42115485],[118.1082519,24.42137633],[118.1091953,24.42150733],[118.110147,24.4215466],[118.111098,24.42149379],[118.1120394,24.42134939],[118.1129625,24.42111475],[118.3781069,24.33988649],[118.3789612,24.33958109],[118.3797837,24.33919841],[118.4287644,24.31360369],[118.4296578,24.31307517],[118.4304906,24.31245557],[118.489565,24.26346532],[118.4902183,24.26287216],[118.490816,24.26222291],[118.4913531,24.26152278],[118.4918255,24.2607774],[118.4922292,24.25999274],[118.4932897,24.25768294],[118.4936612,24.25675139],[118.4939361,24.2557869],[118.4941115,24.25479945],[118.4941856,24.25379929],[118.4941576,24.25279678],[118.4940279,24.25180231],[118.4937977,24.25082618],[118.4934694,24.24987852],[118.4930466,24.24896914],[118.4920395,24.2470637],[118.4915887,24.24629671],[118.4910705,24.24557352],[118.3677413,24.08890581],[118.3671146,24.08818457],[118.3664209,24.08752743],[118.3656669,24.08694059],[118.3648595,24.08642956],[118.3640064,24.08599915],[118.3631157,24.08565341],[118.3131126,24.068987],[118.3120944,24.06870726],[118.311052,24.06853813],[118.3099976,24.06848153],[118.3083344,24.06848153]]]},"properties":{"pid":40,"name":"厦门锚地","guid":"cef9b5db-3a27-49e4-805a-53109c0bd83a"}},{"type":"Feature","geometry":{"type":"Polygon","coordinates":[[[119.85947,26.48265],[119.90891,26.49003],[119.95697,26.49249],[120.00366,26.49249],[120.04898,26.4802],[120.09155,26.47774],[120.18082,26.46667],[120.20691,26.44331],[120.21927,26.38674],[120.18768,26.35229],[120.11627,26.32644],[120.05722,26.36828],[120.0174,26.38797],[119.9762,26.38182],[119.925393388889,26.3885081944444],[119.930006805556,26.4177216388889],[119.90891,26.44577],[119.866237611111,26.43559225],[119.84299,26.46913],[119.85947,26.48265]]]},"properties":{"pid":49,"name":"罗源湾锚地","guid":"10f008ef-5838-4fed-84eb-2fcadfbae77e"}},{"type":"Feature","geometry":{"type":"Polygon","coordinates":[[[110.240574111111,20.11874],[110.306878305556,20.15681575],[110.326941222222,20.0917388611111],[110.296793194444,20.0822671944444],[110.296578638889,20.0614073888889],[110.263104666667,20.0612058333333],[110.240574111111,20.11874]]]},"properties":{"pid":46,"name":"海口1号锚地","guid":"354e63a8-3273-444a-b494-e4b7b09b80c5"}},{"type":"Feature","geometry":{"type":"Polygon","coordinates":[[[110.04314855,19.99101583],[110.03488735,19.97942067],[109.99969677,19.9818406],[109.95270447,19.99646023],[109.97050502,20.05701754],[109.97853019,20.09166239],[110.045456,20.08163116],[110.0491039,20.07755231],[110.0507317,20.07180157],[110.0520805,20.01395745],[110.04314855,19.99101583]]]},"properties":{"pid":45,"name":"海口2号锚地","guid":"a32e51d0-1458-493d-8fc7-1a4ceff70d7c"}},{"type":"Feature","geometry":{"type":"Polygon","coordinates":[[[119.83217954,26.60385912],[119.86359,26.62147],[119.832,26.67057],[119.79939062,26.66557348],[119.79139764,26.65497855],[119.79118306,26.64783481],[119.80201919,26.63383369],[119.80871536,26.63347811],[119.83217954,26.60385912]]]},"properties":{"pid":51,"name":"宁德2号锚地","guid":"573c4bca-9300-486f-8d57-87b96ae71e47"}},{"type":"Feature","geometry":{"type":"Polygon","coordinates":[[[119.7772637,25.91525454],[119.7681026,25.91775486],[119.72856344,26.00546177],[119.63520632,26.12649564],[119.63633285,26.13453859],[119.85058343,26.2947761],[119.89543616,26.28534901],[119.901556,26.17381261],[119.88338472,25.96016562],[119.8594373,25.95000916],[119.8537151,25.94305449],[119.8365873,25.93553899],[119.7772637,25.91525454]]]},"properties":{"pid":44,"name":"福州1号锚地","guid":"de5f9ad4-a1c9-420b-86d7-ba02cbc9e782"}},{"type":"Feature","geometry":{"type":"Polygon","coordinates":[[[119.6366653,25.17840314],[119.6338268,25.17881749],[119.6312251,25.18002594],[119.6290774,25.18192767],[119.6269699,25.18618607],[119.6267606,25.18904708],[119.6271099,25.19274937],[119.62913808,25.29878691],[119.64738568,25.33043089],[119.6638995,25.31973677],[119.68015369,25.30664353],[119.7233442,25.24235004],[119.7248918,25.24044545],[119.7253953,25.23959096],[119.7263635,25.23678802],[119.7262961,25.23284615],[119.7256789,25.23096366],[119.7244419,25.22869605],[119.6994409,25.2077853],[119.6383362,25.17840314],[119.6366653,25.17840314]]]},"properties":{"pid":43,"name":"福州2号锚地","guid":"7cfbd2e2-fd9f-4ef6-aff3-410a2c02251f"}},{"type":"Feature","geometry":{"type":"Polygon","coordinates":[[[119.97345,39.99272],[120.01556869,40.032423],[120.08240933,40.05525649],[120.14236,40.0064],[120.16296,39.9601],[120.10529,39.92219],[120.0119,39.93273],[119.96933,39.96115],[119.97345,39.99272]]]},"properties":{"pid":54,"name":"绥中1号锚地","guid":"34de74cc-e3cf-43aa-93e9-6878beda1230"}},{"type":"Feature","geometry":{"type":"Polygon","coordinates":[[[120.10803,39.67425],[120.1918,39.68587],[120.20142,39.63195],[120.14236,39.59387],[120.08606,39.62455],[120.10803,39.67425]]]},"properties":{"pid":55,"name":"绥中2号锚地","guid":"15ed5384-735d-4149-8533-fd33b744d636"}},{"type":"Feature","geometry":{"type":"Polygon","coordinates":[[[121.07071,40.74794],[121.16135,40.74794],[121.21628,40.71048],[121.24838448,40.6830568],[121.2616024,40.64962587],[121.21546841,40.58789579],[121.16409,40.58753],[121.05698,40.6063],[121.0405,40.70006],[121.07071,40.74794]]]},"properties":{"pid":56,"name":"锦州1号锚地","guid":"c2c74ed8-4390-4bf0-a093-9d6e896e10ea"}},{"type":"Feature","geometry":{"type":"Polygon","coordinates":[[[118.661681472222,38.4081578055556],[118.605676944444,38.4889895],[118.170481944444,38.3549950833333],[118.165332111111,38.3034870833333],[118.140226638889,38.2704758055556],[118.1691945,38.2452019166667],[118.258887555556,38.2246393333333],[118.264251972222,38.2691280833333],[118.661681472222,38.4081578055556]]]},"properties":{"pid":58,"name":"滨州锚地","guid":"9e8f186a-0d56-4b97-80a8-952d53f52580"}},{"type":"Feature","geometry":{"type":"Polygon","coordinates":[[[121.93860369,40.48453193],[121.97227,40.45356],[122.0268288,40.36835741],[122.02597049,40.33238107],[121.88988,40.31548],[121.81572,40.24634],[121.72234,40.18761],[121.63994,40.14248],[121.57265,40.12359],[121.53694,40.17502],[121.5103981,40.21801677],[121.65901656,40.37591224],[121.75804,40.46714],[121.8805472,40.50799541],[121.93860369,40.48453193]]]},"properties":{"pid":59,"name":"盘锦锚地","guid":"18285ee0-425f-41a1-9965-fe6fb1693c4b"}},{"type":"Feature","geometry":{"type":"Polygon","coordinates":[[[121.0508,39.69116],[121.12495,39.69644],[121.1483,39.63724],[121.12633,39.56317],[121.15791,39.50068],[121.22368362,39.44457478],[121.22383,39.41055],[121.23619,39.38296],[121.28396455,39.36543164],[121.32366124,39.34153899],[121.28975,39.30968],[121.23344,39.26504],[121.11534,39.2661],[121.10161,39.35217],[120.99998,39.40737],[120.94643,39.4869],[120.97527,39.58963],[121.0508,39.69116]]]},"properties":{"pid":62,"name":"大连1号锚地","guid":"caff621d-8edc-47f4-abe3-d76c89848d20"}},{"type":"Feature","geometry":{"type":"Polygon","coordinates":[[[121.87099,40.41654],[121.92318,40.41079],[121.97262,40.3972],[122.01725,40.36111],[122.01176,40.32709],[121.91219,40.30353],[121.82470429,40.29783203],[121.7989,40.33023],[121.81606,40.38465],[121.87099,40.41654]]]},"properties":{"pid":63,"name":"鲅鱼圈1号锚地","guid":"33ba02c8-88f3-41d3-a31c-b88cea5c3e2c"}},{"type":"Feature","geometry":{"type":"Polygon","coordinates":[[[121.62483,40.30693],[121.67152,40.3017],[121.74088,40.29593],[121.81778,40.28075],[121.77383,40.21209],[121.68594,40.16593],[121.58569,40.14704],[121.51703,40.14441],[121.50124,40.20684],[121.5490459,40.26682775],[121.62483,40.30693]]]},"properties":{"pid":64,"name":"鲅鱼圈2号锚地","guid":"764f2360-0f53-4533-a54e-bfe79bbd5c5e"}},{"type":"Feature","geometry":{"type":"Polygon","coordinates":[[[123.9453506,39.4082168],[123.9377769,39.41014665],[123.930352,39.41968452],[123.9303172,39.4242022],[123.9371378,39.46017098],[123.9380178,39.46290788],[123.9401756,39.46705981],[124.0372139,39.60181018],[124.039485,39.60417462],[124.0851317,39.63992215],[124.0931056,39.64338042],[124.1013377,39.64481093],[124.1113011,39.64278209],[124.1234242,39.63394725],[124.1281675,39.62556569],[124.1275829,39.61925357],[124.1175808,39.59249347],[124.09519897,39.49612462],[123.989352,39.42624376],[123.9453506,39.4082168]]]},"properties":{"pid":67,"name":"丹东锚地","guid":"0b9b4fb2-b742-4932-8c16-8f5b91a787bc"}},{"type":"Feature","geometry":{"type":"Polygon","coordinates":[[[122.620703916667,30.6288767222222],[122.577037555556,30.5830751388889],[122.522266861111,30.6186748055556],[122.620703916667,30.6288767222222]]]},"properties":{"pid":149,"name":"马迹山2号锚地","guid":"7e089b9f-0f19-46ae-b4ab-07db03c5ceaf"}},{"type":"Feature","geometry":{"type":"Polygon","coordinates":[[[123.0310223,39.14009201],[122.9827299,39.1451787],[122.9735846,39.15147112],[122.973021,39.16085624],[123.0911087,39.47921943],[123.0986342,39.48647816],[123.2579741,39.53656895],[123.2650059,39.53780261],[123.2751382,39.53546879],[123.2807327,39.52857804],[123.2817449,39.52508153],[123.2826227,39.52085998],[123.2811653,39.51053749],[123.1333757,39.257208],[123.1100745,39.22516995],[123.0404868,39.14429456],[123.0310223,39.14009201]]]},"properties":{"pid":66,"name":"庄河锚地","guid":"a28ee47e-b162-492e-80c2-cf7c7cb671a7"}},{"type":"Feature","geometry":{"type":"Polygon","coordinates":[[[120.51453,37.87666],[120.53101,37.85497],[120.54896554,37.83255619],[120.50217,37.82732],[120.45197686,37.83120039],[120.45135,37.87124],[120.51453,37.87666]]]},"properties":{"pid":76,"name":"蓬莱1号锚地","guid":"f7e9e951-b0b5-4be5-97fc-28652674be54"}},{"type":"Feature","geometry":{"type":"Polygon","coordinates":[[[121.11603,37.90266],[121.20392,37.90483],[121.31240924,37.88779014],[121.35845609,37.8503428],[121.33141942,37.72977738],[121.27808,37.70083],[121.15496294,37.75627101],[121.05539934,37.7985016],[121.11603,37.90266]]]},"properties":{"pid":78,"name":"烟台1号锚地","guid":"2ff2c81e-f1a3-4102-81a2-7f5ace1ae190"}},{"type":"Feature","geometry":{"type":"Polygon","coordinates":[[[119.1075335,38.16401644],[119.1023634,38.16422683],[119.0979811,38.16584559],[119.0866056,38.17297145],[119.0822618,38.17793937],[119.0812774,38.18418996],[119.0844929,38.19283209],[119.0845424,38.19294604],[119.2415859,38.54889163],[119.2567957,38.55874024],[119.2692157,38.5486455],[119.36026986,38.19689478],[119.3443786,38.18224272],[119.1075335,38.16401644]]]},"properties":{"pid":68,"name":"东营锚地","guid":"d88bc715-5f38-46e6-81ce-932e180d7edb"}},{"type":"Feature","geometry":{"type":"Polygon","coordinates":[[[120.10048,38.07494],[120.15816,38.05872],[120.18288,38.01113],[120.21034411,37.95480583],[120.22133,37.90718],[120.18953016,37.88337172],[120.11700323,37.87981513],[120.00885657,37.98085691],[120.00842741,38.03377641],[120.10048,38.07494]]]},"properties":{"pid":75,"name":"龙口2号锚地","guid":"dbb5c008-0505-4dd1-9070-cb1c82474c23"}},{"type":"Feature","geometry":{"type":"Polygon","coordinates":[[[120.87557762,37.93371121],[120.87717478,37.95344026],[120.94986,37.94762],[120.96703,37.92434],[120.96703,37.90321],[120.95055,37.88208],[120.92529886,37.88289811],[120.89012,37.86961],[120.87208384,37.87087268],[120.87296,37.90104],[120.87557762,37.93371121]]]},"properties":{"pid":77,"name":"蓬莱2号锚地","guid":"2393c72a-548e-40be-a74f-95e9ca8be39f"}},{"type":"Feature","geometry":{"type":"Polygon","coordinates":[[[121.453357416667,37.7033691111111],[121.499491416667,37.7113478888889],[121.542084888889,37.7108386388889],[121.590585166667,37.6759031944444],[121.588653972222,37.6410791944444],[121.528465194444,37.6280797222222],[121.481472888889,37.6282496666667],[121.42632075,37.6571771666667],[121.453357416667,37.7033691111111]]]},"properties":{"pid":79,"name":"烟台2号锚地","guid":"e58109a6-7b3b-4033-9027-cb3f0dfc96fe"}},{"type":"Feature","geometry":{"type":"Polygon","coordinates":[[[119.46465,37.58195],[119.44405,37.55256],[119.42757,37.53405],[119.40422,37.51335],[119.37538,37.50137],[119.30672,37.49701],[119.26809744,37.46499949],[119.23333601,37.42752082],[119.21724276,37.39036434],[119.22453837,37.3705855],[119.25179,37.34978],[119.30534,37.33121],[119.39348903,37.35021544],[119.47974887,37.3914835],[119.54060968,37.46259287],[119.56271108,37.54328115],[119.52272229,37.58761464],[119.46465,37.58195]]]},"properties":{"pid":69,"name":"潍坊锚地","guid":"e6623050-e7e6-4dc7-b670-a78bc644c1f6"}},{"type":"Feature","geometry":{"type":"Polygon","coordinates":[[[119.84161,37.58739],[119.88007,37.57324],[119.89929,37.54385],[119.89243,37.50028],[119.8023048,37.47688652],[119.76668506,37.56725464],[119.84161,37.58739]]]},"properties":{"pid":72,"name":"莱州1号锚地","guid":"d1b8b456-c7d6-4b5a-80b5-c753966c5038"}},{"type":"Feature","geometry":{"type":"Polygon","coordinates":[[[120.08949,38.06196],[120.02632,38.02411],[119.95677839,37.9778069],[119.92394815,37.91096623],[119.97523199,37.86829181],[120.08812,37.89526],[120.16777,37.95376],[120.15959631,38.03806361],[120.08949,38.06196]]]},"properties":{"pid":73,"name":"莱州2号锚地","guid":"e5cf4cb9-03d1-480d-bfa2-d36b0c6d838a"}},{"type":"Feature","geometry":{"type":"Polygon","coordinates":[[[120.1664,37.802],[120.19524,37.77704],[120.21858,37.72709],[120.19798,37.68255],[120.22822435,37.64327781],[120.15076215,37.64463706],[120.07823522,37.64667589],[120.03072068,37.75229165],[120.07900045,37.77179979],[120.1664,37.802]]]},"properties":{"pid":74,"name":"龙口1号锚地","guid":"5f1c5462-618c-4cf5-be04-b650816e8a62"}},{"type":"Feature","geometry":{"type":"Polygon","coordinates":[[[122.28300697,37.61705922],[122.24974757,37.57140883],[122.22302767,37.5173299],[122.25274655,37.50813877],[122.27667185,37.4993721],[122.30950209,37.49741435],[122.36208496,37.49227071],[122.38281329,37.48622649],[122.37938006,37.52256956],[122.35910256,37.56399778],[122.3259,37.59537],[122.30349904,37.60779539],[122.28300697,37.61705922]]]},"properties":{"pid":81,"name":"威海锚地","guid":"7fcd7e9f-441a-436d-b59a-ca5cbdf8cfc1"}},{"type":"Feature","geometry":{"type":"Polygon","coordinates":[[[122.137817555556,36.8030576666667],[122.207876861111,36.8019408888889],[122.245326694444,36.7595646111111],[122.236743638889,36.7529458333333],[122.255733666667,36.7354076111111],[122.128601277778,36.6656800555556],[122.137817555556,36.8030576666667]]]},"properties":{"pid":82,"name":"张家埠锚地","guid":"7097879e-e50c-4a26-83cd-3ea2c976de25"}},{"type":"Feature","geometry":{"type":"Polygon","coordinates":[[[122.668692388889,37.3738728888889],[122.678477083333,37.3635640833333],[122.653747111111,37.3473178611111],[122.643447416667,37.3579785277778],[122.668692388889,37.3738728888889]]]},"properties":{"pid":80,"name":"荣成1号锚地","guid":"8b9c697c-85f3-45c3-bdb6-b92ecf8dd2f0"}},{"type":"Feature","geometry":{"type":"Polygon","coordinates":[[[119.63974,35.38998],[119.68781,35.39334],[119.72488,35.3799],[119.78040093,35.35314286],[119.82813198,35.33351173],[119.90594175,35.30263148],[119.87976339,35.25542585],[119.86896911,35.21160624],[119.84312301,35.12429097],[119.76287132,35.13903193],[119.68712574,35.17218935],[119.54250103,35.22233835],[119.58069,35.29812],[119.61204393,35.36356922],[119.63974,35.38998]]]},"properties":{"pid":95,"name":"日照锚地","guid":"bea662a3-949e-4fa4-b6fa-1ee3bc2cece2"}},{"type":"Feature","geometry":{"type":"Polygon","coordinates":[[[122.671836888889,37.6431564722222],[122.667707305556,37.6414445],[122.663237,37.6414605555556],[122.659119805556,37.6432021111111],[122.655994888889,37.6463988611111],[122.654594694444,37.6494860833333],[122.6541915,37.6517329166667],[122.654548194444,37.6556798611111],[122.656550888889,37.6610384444444],[122.660339,37.66486975],[122.6643875,37.6663917222222],[122.670779388889,37.6656219722222],[122.674686611111,37.6628428888889],[122.676843,37.6598518055556],[122.678017805556,37.6556806111111],[122.677841305556,37.6520311666667],[122.676015194444,37.6475121666667],[122.673707694444,37.6446083888889],[122.672103888889,37.6433357777778],[122.671836888889,37.6431564722222]]]},"properties":{"pid":83,"name":"龙眼港2号锚地","guid":"fd3649ed-e8d9-46f1-97c1-7bc9995f5bb1"}},{"type":"Feature","geometry":{"type":"Polygon","coordinates":[[[121.175123638889,36.6590128888889],[121.174170833333,36.4892951666667],[121.285795444444,36.4880730555556],[121.285321555556,36.5836021666667],[121.265365916667,36.5837744722222],[121.262361861111,36.6580009722222],[121.175123638889,36.6590128888889]]]},"properties":{"pid":90,"name":"海阳锚地","guid":"56278cfc-ce78-4326-b756-a5024345feff"}},{"type":"Feature","geometry":{"type":"Polygon","coordinates":[[[120.38406,36.00559],[120.42644344,35.99642917],[120.49319448,35.98423851],[120.47786987,35.92970111],[120.439,35.9011],[120.38818,35.89331],[120.34698,35.93001],[120.33325,35.99337],[120.38406,36.00559]]]},"properties":{"pid":92,"name":"青岛1号锚地","guid":"c776ae27-c671-4667-8018-37447666779b"}},{"type":"Feature","geometry":{"type":"Polygon","coordinates":[[[120.86472,35.8833],[120.95181825,35.92194928],[121.02949502,35.91326041],[121.06000913,35.84908233],[121.10056413,35.7599813],[121.10764516,35.68869289],[121.01303,35.68053],[120.87997926,35.66202376],[120.84324809,35.74110144],[120.76748255,35.89542634],[120.86472,35.8833]]]},"properties":{"pid":93,"name":"青岛2号锚地","guid":"c8e97ee2-18b5-4d39-ab37-1a552f8738a2"}},{"type":"Feature","geometry":{"type":"Polygon","coordinates":[[[119.97894,35.56089],[120.07782,35.5229],[120.19043,35.48936],[120.34698,35.44239],[120.50903,35.38643],[120.62988,35.3125],[120.63538,35.19138],[120.51727,35.03636],[120.29205,34.95086],[120.10803,34.93059],[120.02014,35.05884],[119.9762,35.23626],[119.92126,35.35283],[119.81415,35.40881],[119.81857446,35.53681465],[119.88007,35.55642],[119.97894,35.56089]]]},"properties":{"pid":94,"name":"董家口锚地","guid":"4012bbab-caa3-45af-b5a2-4032b1488773"}},{"type":"Feature","geometry":{"type":"Polygon","coordinates":[[[113.86726252,22.10405778],[113.85202757,22.09222834],[113.85159842,22.04589512],[113.92187229,22.05444703],[113.92273,22.08527],[113.9181172,22.10316315],[113.86726252,22.10405778]]]},"properties":{"pid":162,"name":"东莞3号锚地","guid":"4761c44b-b935-48f2-a941-3ebc792efc8a"}},{"type":"Feature","geometry":{"type":"Polygon","coordinates":[[[121.82333375,29.6379951388889],[121.819377777778,29.6387820277778],[121.816024055556,29.6410229166667],[121.813783166667,29.6443766111111],[121.812996277778,29.6483326111111],[121.813494416667,29.6531699722222],[121.815612083333,29.6568726944444],[121.826187444444,29.6686234166667],[121.829669,29.6706508888889],[121.883885722222,29.6823726666667],[121.94508275,29.6730620833333],[121.962346472222,29.6690955833333],[121.977688694444,29.66215025],[121.975811166667,29.6487243611111],[121.943463722222,29.6508689166667],[121.851412361111,29.6380922777778],[121.849998472222,29.6379951388889],[121.82333375,29.6379951388889]]]},"properties":{"pid":23,"name":"象山锚地","guid":"358d8fb0-88ec-4773-9777-9866b40beb44"}},{"type":"Feature","geometry":{"type":"Polygon","coordinates":[[[122.7054311,37.28563627],[122.703635,37.28434561],[122.7016218,37.2834298],[122.6994687,37.28292398],[122.6972583,37.28284756],[122.6961581,37.28297194],[122.69154945,37.28333106],[122.68631915,37.28444079],[122.68307367,37.28535843],[122.68098155,37.28832469],[122.67985502,37.29515304],[122.68138388,37.30033791],[122.68284574,37.3019402],[122.68477693,37.30392439],[122.68896118,37.30563118],[122.6945406,37.30723519],[122.6967592,37.30768687],[122.7003193,37.30749777],[122.7039546,37.30609279],[122.7068831,37.30372293],[122.7092682,37.299956],[122.7101588,37.29565929],[122.7095316,37.29114224],[122.7071688,37.28724164],[122.7054311,37.28563627]]]},"properties":{"pid":86,"name":"荣成2号锚地","guid":"3c92658e-a235-4b70-bc05-cdcc98acc4e6"}},{"type":"Feature","geometry":{"type":"Polygon","coordinates":[[[122.4816666,36.6154495],[122.4773679,36.61630584],[122.4737255,36.61874413],[122.3608416,36.74852753],[122.3590445,36.75260299],[122.3589751,36.75705653],[122.3606444,36.76118601],[122.4093565,36.83388929],[122.4129983,36.83607832],[122.4464997,36.84669245],[122.5757744,36.88536333],[122.5802072,36.88549745],[122.589749,36.87908153],[122.6403504,36.78054047],[122.6407121,36.76992798],[122.6130045,36.72265052],[122.4833298,36.6154495],[122.4816666,36.6154495]]]},"properties":{"pid":87,"name":"石岛锚地","guid":"fab647db-92bb-4146-9d26-8cfac535228b"}},{"type":"Feature","geometry":{"type":"Polygon","coordinates":[[[121.48675941,36.71816456],[121.48956,36.69916],[121.4875,36.68264],[121.4684131,36.67764748],[121.4481356,36.67842189],[121.4385578,36.68927901],[121.44520968,36.73335838],[121.46602362,36.73314342],[121.48675941,36.71816456]]]},"properties":{"pid":88,"name":"乳山1号锚地","guid":"bed4d5cf-d5ef-424f-84f7-0e7c92f6ee82"}},{"type":"Feature","geometry":{"type":"Polygon","coordinates":[[[121.50093539,36.64214628],[121.52973,36.64133],[121.5616606,36.64180194],[121.5723,36.60661],[121.55897839,36.58418869],[121.53866,36.56912],[121.51440652,36.55762103],[121.48211272,36.56994382],[121.48167,36.61488],[121.50093539,36.64214628]]]},"properties":{"pid":89,"name":"乳山2号锚地","guid":"535bae90-25f3-4d25-9fff-71d6663d12dd"}},{"type":"Feature","geometry":{"type":"Polygon","coordinates":[[[121.15135676,36.31295545],[121.26079088,36.34165235],[121.25885969,36.24895446],[121.1592961,36.22230075],[121.0714328,36.19974269],[121.01499912,36.1832912],[121.00298282,36.27675895],[121.04278094,36.28597765],[121.15135676,36.31295545]]]},"properties":{"pid":91,"name":"青岛3号锚地","guid":"3138ab8f-865c-4891-8252-0c526dd4f37a"}},{"type":"Feature","geometry":{"type":"Polygon","coordinates":[[[119.50653,35.1579],[119.55322,35.1579],[119.67555085,35.15753243],[119.73064014,35.1373481],[119.77844,35.11298],[119.77527209,35.00598674],[119.64674064,34.99948343],[119.47907649,34.99244136],[119.43200173,34.99593189],[119.39294876,35.03617554],[119.49005,35.13544],[119.50653,35.1579]]]},"properties":{"pid":96,"name":"岚山锚地","guid":"57b8ea0d-a9e2-4bea-a182-ea170093b064"}},{"type":"Feature","geometry":{"type":"Polygon","coordinates":[[[119.57245,34.83503],[119.62326,34.86996],[119.69604,34.90489],[119.7988445,34.93887852],[119.87244431,34.94468308],[119.93362,34.9229],[120.05383931,34.95621613],[120.08817159,34.91575721],[119.99912225,34.88460784],[120.03474199,34.84094367],[119.88503791,34.75658638],[119.75198397,34.67870334],[119.6654131,34.74816959],[119.65339681,34.77954685],[119.59138413,34.77461189],[119.56091424,34.82623807],[119.57245,34.83503]]]},"properties":{"pid":97,"name":"连云港锚地","guid":"d8785f46-5ffd-4d15-bf4c-7d889fc66b91"}},{"type":"Feature","geometry":{"type":"Polygon","coordinates":[[[119.89243,34.7211],[119.86771,34.67707],[119.84848,34.62849],[119.82925,34.5878],[119.85535,34.56406],[119.91714,34.54822],[120.00361268,34.57846411],[120.0531,34.62849],[120.03113,34.71207],[119.98032,34.74142],[119.89243,34.7211]]]},"properties":{"pid":98,"name":"陈家港锚地","guid":"aeff3472-23f3-48a2-8c5d-dab77070b96a"}},{"type":"Feature","geometry":{"type":"Polygon","coordinates":[[[120.53718575,33.8994770833333],[120.563149527778,33.8990318333333],[120.631492222222,33.8986756388889],[120.765113194444,33.9416811388889],[120.838927583333,33.9416811388889],[120.836138083333,33.8494198611111],[120.631921361111,33.853247],[120.559394416667,33.8530688055556],[120.55787,33.86832],[120.551,33.8793],[120.53718575,33.8994770833333]]]},"properties":{"pid":99,"name":"射阳锚地","guid":"afe5d39d-534d-4c50-9d67-35fd134e2a9b"}},{"type":"Feature","geometry":{"type":"Polygon","coordinates":[[[120.4296254,34.23455197],[120.4253831,34.23411315],[120.3546148,34.25519446],[120.3164525,34.2715753],[120.3137807,34.27479823],[120.3125241,34.27879156],[120.311668,34.34175143],[120.3126488,34.34570947],[120.3185885,34.35561369],[120.3222422,34.35826726],[120.4367097,34.39787963],[120.466774,34.40269585],[120.4715721,34.40221339],[120.4753554,34.40015505],[120.4799992,34.39526668],[120.4979365,34.36268361],[120.4987523,34.35872453],[120.4983767,34.35570838],[120.4799708,34.28984056],[120.436354,34.23816749],[120.4296254,34.23455197]]]},"properties":{"pid":101,"name":"滨海锚地","guid":"b94dd9ad-90b3-4a4e-b762-ca96e6e3d951"}},{"type":"Feature","geometry":{"type":"Polygon","coordinates":[[[120.83038,33.67387],[120.90866,33.67387],[120.92874963,33.60830975],[120.95321137,33.51837264],[120.90042,33.48509],[120.82901,33.50227],[120.78918,33.6007],[120.83038,33.67387]]]},"properties":{"pid":102,"name":"大丰1号锚地","guid":"a4e9a156-7163-495b-a88a-d409b62f08e8"}},{"type":"Feature","geometry":{"type":"Polygon","coordinates":[[[120.87296,33.38654],[120.91207317,33.37586467],[120.93100451,33.32098855],[120.96696545,33.21394509],[120.94293286,33.18395986],[120.87405373,33.16222762],[120.85995604,33.2107316],[120.88607003,33.21933057],[120.84912395,33.31548761],[120.84,33.37048],[120.87296,33.38654]]]},"properties":{"pid":103,"name":"大丰2号锚地","guid":"73fc0a7f-bebe-4401-a9db-029da800c032"}},{"type":"Feature","geometry":{"type":"Polygon","coordinates":[[[121.64596669,32.4514017],[121.67160861,32.45122063],[121.70272223,32.44814238],[121.73287026,32.43872592],[121.75572806,32.42208768],[121.75669366,32.39536723],[121.72932974,32.38057557],[121.69800154,32.38555876],[121.66774622,32.39778908],[121.64092413,32.41355015],[121.62965886,32.42903679],[121.64596669,32.4514017]]]},"properties":{"pid":104,"name":"洋口锚地","guid":"3fca3455-ad4d-44d2-9f38-185629d7d485"}},{"type":"Feature","geometry":{"type":"Polygon","coordinates":[[[122.00428158,31.99902208],[122.11372,31.93924],[122.47289185,31.98371178],[122.49155041,31.83208212],[122.30251206,31.82750663],[122.24564923,31.81437916],[122.1936591,31.792641],[122.13365298,31.77116629],[122.0403579,31.84359288],[121.93626076,31.94787332],[122.00428158,31.99902208]]]},"properties":{"pid":106,"name":"吕四锚地","guid":"5643481a-9ad6-4df3-8050-535e68244d52"}},{"type":"Feature","geometry":{"type":"Polygon","coordinates":[[[121.71189384,30.47937207],[121.7571071,30.48491229],[121.8013,30.48857],[121.82293,30.4794],[121.82877,30.46756],[121.8298156,30.44517525],[121.82383577,30.41805073],[121.72262268,30.41906794],[121.71189384,30.47937207]]]},"properties":{"pid":107,"name":"上海南港1号锚地","guid":"0e60763f-05cc-4e19-bb3e-ba5459dbd016"}},{"type":"Feature","geometry":{"type":"Polygon","coordinates":[[[121.96187429,30.50250442],[121.95329122,30.40705917],[122.05285482,30.40169222],[122.19104222,30.41446137],[122.13160447,30.51895742],[121.96187429,30.50250442]]]},"properties":{"pid":108,"name":"上海南港2号锚地","guid":"8f0ed608-345f-4587-ac31-52dcfb1182af"}},{"type":"Feature","geometry":{"type":"Polygon","coordinates":[[[121.71547,30.32537],[121.77511878,30.34115113],[121.78574033,30.24767984],[121.68413825,30.24814325],[121.66729398,30.30132788],[121.71547,30.32537]]]},"properties":{"pid":109,"name":"漕泾1号锚地","guid":"dffb206d-8b0d-4ebd-979f-86a55cc798cb"}},{"type":"Feature","geometry":{"type":"Polygon","coordinates":[[[121.96281361,30.50156013],[122.04649853,30.50895516],[122.10185933,30.47400873],[122.07224774,30.40296782],[121.95444512,30.40870482],[121.96281361,30.50156013]]]},"properties":{"pid":110,"name":"漕泾2号锚地","guid":"d2bcd17f-3a73-47ca-8831-cc1a4aac3fd9"}},{"type":"Feature","geometry":{"type":"Polygon","coordinates":[[[121.23751792,30.64354069],[121.16998263,30.61179784],[121.16558381,30.59157407],[121.11177924,30.56284298],[121.12325909,30.54353301],[121.18150973,30.54289672],[121.26648212,30.54844068],[121.3330009,30.56732473],[121.2702798,30.63658584],[121.23751792,30.64354069]]]},"properties":{"pid":111,"name":"乍浦1号锚地","guid":"25bbd9d6-cbee-446f-a976-43e94621748d"}},{"type":"Feature","geometry":{"type":"Polygon","coordinates":[[[121.16615,27.96276],[121.19009667,27.96704933],[121.22131758,27.96392224],[121.21902,27.94396],[121.203615,27.92402019],[121.1594122,27.90979975],[121.11465,27.92091],[121.1071,27.94639],[121.13525,27.95488],[121.16615,27.96276]]]},"properties":{"pid":117,"name":"温州2号锚地","guid":"b4cdadab-b076-495a-b564-85bbb22260f2"}},{"type":"Feature","geometry":{"type":"Polygon","coordinates":[[[121.5766105,30.5077466666667],[121.709670694444,30.4796115555556],[121.809448888889,30.4884875],[121.81709,30.4681],[121.83151,30.43318],[121.815955027778,30.39367275],[121.615448888889,30.4008326666667],[121.554509111111,30.44542525],[121.56029,30.49414],[121.5766105,30.5077466666667]]]},"properties":{"pid":112,"name":"乍浦2号锚地","guid":"f4c64252-9e4c-475a-8412-6fd6961c5bb3"}},{"type":"Feature","geometry":{"type":"Polygon","coordinates":[[[120.92136,27.43933],[120.95913,27.44786],[121.07311,27.41068],[121.1496607,27.38086577],[121.10674535,27.32330849],[121.04859506,27.32883681],[120.98014509,27.3772455],[120.91748869,27.38829648],[120.89088117,27.40715682],[120.92136,27.43933]]]},"properties":{"pid":114,"name":"苍南2号锚地","guid":"b86dcb2c-c07d-4f55-8ca6-7285e9c5b350"}},{"type":"Feature","geometry":{"type":"Polygon","coordinates":[[[121.21540708,28.03467271],[121.22066421,28.05555193],[121.18466896,28.04343206],[121.18375701,28.03524091],[121.21540708,28.03467271]]]},"properties":{"pid":119,"name":"温州3号锚地","guid":"a283691e-444e-44b5-baab-332f5cf720eb"}},{"type":"Feature","geometry":{"type":"Polygon","coordinates":[[[120.46028,27.14526],[120.48328,27.13579],[120.501217,27.1348897],[120.52170908,27.13040206],[120.54099953,27.12251485],[120.5492,27.11043],[120.53885376,27.09415065],[120.50786888,27.08446506],[120.47278559,27.09334832],[120.43716585,27.10805669],[120.44657137,27.14338963],[120.46028,27.14526]]]},"properties":{"pid":113,"name":"宁德3号锚地","guid":"3fc60453-ae5a-4f6d-8ccd-f26b756a862e"}},{"type":"Feature","geometry":{"type":"Polygon","coordinates":[[[120.74661284,27.49736631],[120.82085638,27.46909772],[120.80388239,27.4311139],[120.76688821,27.38374827],[120.73038987,27.4187339],[120.70764474,27.45977304],[120.74661284,27.49736631]]]},"properties":{"pid":115,"name":"苍南1号锚地","guid":"319a7103-7ae6-4346-b14c-c59ffc11275b"}},{"type":"Feature","geometry":{"type":"Polygon","coordinates":[[[121.27533,27.9566],[121.34731843,27.95950737],[121.43463,27.95902],[121.52664,27.95417],[121.57196,27.91292],[121.54724,27.8583],[121.51566,27.79028],[121.47102,27.74654],[121.41335,27.73195],[121.34056,27.74046],[121.2777302,27.7884204],[121.24447081,27.82808778],[121.21284,27.88743],[121.22543886,27.93346265],[121.27533,27.9566]]]},"properties":{"pid":118,"name":"温州1号锚地","guid":"3e579988-e3d5-40d6-92c4-284771862e38"}},{"type":"Feature","geometry":{"type":"Polygon","coordinates":[[[122.65617,30.32567],[122.645542,30.26074486],[122.82964883,30.1958549],[122.82235322,30.33355595],[122.70767,30.33307],[122.65617,30.32567]]]},"properties":{"pid":135,"name":"鼠浪湖1号锚地","guid":"141bafa6-d20b-4c5f-9279-e557c11b9074"}},{"type":"Feature","geometry":{"type":"Polygon","coordinates":[[[121.7601,30.34779],[121.78622079,30.32190657],[121.81091,30.27191],[121.84211063,30.2038687],[121.83443961,30.1775433],[121.77264152,30.13505567],[121.73126,30.14017],[121.69418,30.20428],[121.64474,30.28258],[121.68594,30.35845],[121.7601,30.34779]]]},"properties":{"pid":121,"name":"北仑1号锚地","guid":"00df1a01-7244-467f-8cdf-55fa9cd8aba2"}},{"type":"Feature","geometry":{"type":"Polygon","coordinates":[[[121.97159,30.02134],[122.00536061,30.0082798],[122.01828,29.9928],[122.0224,29.9583],[122.00128365,29.93866829],[121.96459103,29.96906543],[121.94484998,30.00939467],[121.97159,30.02134]]]},"properties":{"pid":122,"name":"北仑2号锚地","guid":"0f48ef71-0576-4f04-9dea-605d555aa479"}},{"type":"Feature","geometry":{"type":"Polygon","coordinates":[[[122.18994,29.93688],[122.21345875,29.94283235],[122.26409886,29.92897916],[122.29174537,29.92098249],[122.28607,29.89165],[122.24197636,29.8804906],[122.22191344,29.84839142],[122.20002661,29.84029522],[122.15698,29.90951],[122.18994,29.93688]]]},"properties":{"pid":123,"name":"北仑3号锚地","guid":"2223288a-4b71-4538-9aa5-266aa9cde50a"}},{"type":"Feature","geometry":{"type":"Polygon","coordinates":[[[121.78019995,28.74061889],[121.77827874,28.7019146],[121.7901341,28.70026773],[121.79410377,28.70892525],[121.81518593,28.71235982],[121.81480044,28.74193587],[121.78019995,28.74061889]]]},"properties":{"pid":124,"name":"台州2号锚地","guid":"c9df5477-9aa7-4f1b-ade6-55d4423c0949"}},{"type":"Feature","geometry":{"type":"Polygon","coordinates":[[[122.7407609,30.46521794],[122.68849193,30.47485414],[122.65380544,30.43750619],[122.72354287,30.38180402],[122.82742636,30.40870608],[122.7407609,30.46521794]]]},"properties":{"pid":136,"name":"鼠浪湖2号锚地","guid":"12c0cb9b-bec0-414c-8c8b-31e934eec059"}},{"type":"Feature","geometry":{"type":"Polygon","coordinates":[[[121.713603388889,28.6857401111111],[121.755284333333,28.6785342222222],[121.957769361111,28.6771587222222],[121.993094138889,28.7261041111111],[122.153996027778,28.7189534722222],[122.133383694444,28.5311636944444],[122.02030175,28.5347454722222],[121.910867638889,28.6093696111111],[121.710146333333,28.6247235],[121.713603388889,28.6857401111111]]]},"properties":{"pid":120,"name":"台州1号锚地","guid":"32644531-285c-4a81-a091-3d4a84fcd957"}},{"type":"Feature","geometry":{"type":"Polygon","coordinates":[[[121.69006,29.08462],[121.70071,29.07922],[121.71341,29.08252],[121.768,29.05192],[121.78528703,29.04669134],[121.8092,29.0231],[121.7849013,29.00291991],[121.76697,29.0204],[121.7371,29.03631],[121.70723,29.05252],[121.68526,29.06902],[121.69006,29.08462]]]},"properties":{"pid":126,"name":"台州3号锚地","guid":"a076a949-2724-4adc-9989-05554855f57d"}},{"type":"Feature","geometry":{"type":"Polygon","coordinates":[[[122.070460833333,29.1849599444444],[122.0513635,29.1442062222222],[122.130435027778,29.1429880277778],[122.147386583333,29.1848662777778],[122.070460833333,29.1849599444444]]]},"properties":{"pid":127,"name":"石浦锚地","guid":"b1f64b79-be8a-414f-8d9d-e1276decce47"}},{"type":"Feature","geometry":{"type":"Polygon","coordinates":[[[122.19887,29.94591],[122.192,29.93579],[122.17275712,29.9163055],[122.21052263,29.84737407],[122.22414825,29.85137544],[122.23045,29.88639],[122.28004548,29.89407776],[122.28852126,29.92207088],[122.19887,29.94591]]]},"properties":{"pid":129,"name":"舟山2号锚地","guid":"f44f7657-94ab-4369-a19d-623a86d93070"}},{"type":"Feature","geometry":{"type":"Polygon","coordinates":[[[121.77246,30.33001],[121.7807,30.30156],[121.77246,30.26835],[121.73538,30.25649],[121.6832,30.25768],[121.6777,30.32053],[121.72028,30.34779],[121.77246,30.33001]]]},"properties":{"pid":130,"name":"大榭1号锚地","guid":"2889101f-18d3-448d-a0da-7c35c9035ead"}},{"type":"Feature","geometry":{"type":"Polygon","coordinates":[[[121.78276,30.23583],[121.72668958,30.22626499],[121.70405174,30.20429219],[121.74774,30.14799],[121.791,30.14621],[121.83563,30.16343],[121.84387,30.20913],[121.82602,30.23702],[121.78276,30.23583]]]},"properties":{"pid":131,"name":"大榭2号锚地","guid":"86e00c40-b05c-4f23-84cc-1faec4e43dc3"}},{"type":"Feature","geometry":{"type":"Polygon","coordinates":[[[122.20127,29.93227],[122.22496,29.93317],[122.25895,29.93376],[122.27406,29.92603],[122.28367,29.91174],[122.272,29.89299],[122.24865,29.89002],[122.22708787,29.87472316],[122.21157,29.86531],[122.18891,29.87156],[122.18102,29.89567],[122.18307,29.91918],[122.20127,29.93227]]]},"properties":{"pid":132,"name":"大榭3号锚地","guid":"32d6a63b-d5c5-4bf7-a03c-5edc55084775"}},{"type":"Feature","geometry":{"type":"Polygon","coordinates":[[[122.25822031,30.18999356],[122.31634039,30.21042211],[122.38321009,30.22088169],[122.43095,30.18114],[122.37935226,30.13961134],[122.33196611,30.11706381],[122.22467775,30.12996282],[122.22496,30.17758],[122.25822031,30.18999356]]]},"properties":{"pid":133,"name":"舟山3号锚地","guid":"a842ce6c-e7ba-4f52-8663-f7bfafeb0ba6"}},{"type":"Feature","geometry":{"type":"Polygon","coordinates":[[[122.50597831,30.36697431],[122.61047718,30.36808513],[122.60554191,30.27602937],[122.48258945,30.31512196],[122.50597831,30.36697431]]]},"properties":{"pid":137,"name":"鼠浪湖3号锚地","guid":"ad6ebb15-b4da-4ea1-aafa-29a282dbb422"}},{"type":"Feature","geometry":{"type":"Polygon","coordinates":[[[122.26960519444444,29.584515027777776],[122.54151680555556,29.466214777777775],[122.65138008333334,29.445886694444443],[123.02491524999999,29.42316225],[123.34763863888888,30.02898522222222],[122.90543894444446,30.09910888888889],[122.68983225000001,30.12049263888889],[122.26960519444444,29.584515027777776]]]},"properties":{"pid":128,"name":"舟山1号锚地","guid":"82d5be5d-70ac-4c26-b679-22eb6e065771"}},{"type":"Feature","geometry":{"type":"Polygon","coordinates":[[[113.62410297,22.79419917],[113.63811,22.78214],[113.64920844,22.77006314],[113.65505566,22.75725151],[113.65564574,22.74963321],[113.6515,22.73592],[113.64086,22.7337],[113.63125,22.74732],[113.62129,22.76251],[113.61122836,22.77723515],[113.61401786,22.78974818],[113.62410297,22.79419917]]]},"properties":{"pid":163,"name":"广州1号锚地","guid":"88b82101-25f8-4fb1-823f-676e0f1dd914"}},{"type":"Feature","geometry":{"type":"Polygon","coordinates":[[[113.67279,22.73022],[113.68,22.72769],[113.68725863,22.72508562],[113.71118393,22.68663447],[113.68505921,22.67723035],[113.66833,22.71977],[113.67279,22.73022]]]},"properties":{"pid":164,"name":"广州2号锚地","guid":"acfc173c-2ff9-4527-b68d-fb106214378a"}},{"type":"Feature","geometry":{"type":"Polygon","coordinates":[[[111.192788,21.36572669],[111.17411982,21.34114557],[111.17369067,21.32175756],[111.18087899,21.30426617],[111.19611394,21.29257077],[111.21810805,21.28727255],[111.23988759,21.29337049],[111.25759017,21.30786457],[111.26274001,21.32405627],[111.26027238,21.34834047],[111.2462176,21.36342863],[111.22154128,21.37172145],[111.192788,21.36572669]]]},"properties":{"pid":165,"name":"水东1号锚地","guid":"c8a4b5b4-2335-4409-9bc9-8b3bbeecdf86"}},{"type":"Feature","geometry":{"type":"Polygon","coordinates":[[[111.17867664,21.2816701],[111.17395595,21.17826269],[111.16971173,21.10155585],[111.29759946,21.1007551],[111.43316463,21.14364403],[111.40162185,21.28266982],[111.17867664,21.2816701]]]},"properties":{"pid":166,"name":"水东2号锚地","guid":"4300ad1d-fc7e-4105-a223-589471e6d604"}},{"type":"Feature","geometry":{"type":"Polygon","coordinates":[[[111.153454527778,21.4319160277778],[111.185211888889,21.3579938055556],[110.997671833333,21.3573942777778],[110.979325527778,21.39456],[111.062838805556,21.4235134166667],[111.153454527778,21.4319160277778]]]},"properties":{"pid":167,"name":"水东3号锚地","guid":"aa89433b-cb2d-4b42-9f42-1bda646d132c"}},{"type":"Feature","geometry":{"type":"Polygon","coordinates":[[[109.03242274,21.38710456],[109.06422301,21.1053958],[108.92504335,21.09231049],[108.95174189,21.38730436],[109.03242274,21.38710456]]]},"properties":{"pid":168,"name":"北海锚地","guid":"0b2769e4-fe09-44c1-be95-cd9aea9311ca"}},{"type":"Feature","geometry":{"type":"Polygon","coordinates":[[[115.12132679,22.67207316],[115.15589059,22.63487912],[115.24070839,22.66108631],[115.29863961,22.53782516],[115.15036709,22.50313777],[115.08570705,22.65603459],[115.12132679,22.67207316]]]},"properties":{"pid":169,"name":"汕尾海丰华润电厂锚地","guid":"3a452d96-f48d-4116-b81e-16aff162ff9c"}},{"type":"Feature","geometry":{"type":"Polygon","coordinates":[[[116.8536272,23.22329139],[116.8507963,23.22222577],[116.8442308,23.22282429],[116.8428073,23.22348092],[116.81351009,23.25609858],[116.83432403,23.29187509],[116.85803476,23.31306049],[116.8995355,23.30665172],[116.8996349,23.30659634],[116.9090572,23.30127866],[116.9099605,23.3007014],[116.9107952,23.30002873],[116.9237865,23.28827118],[116.9262051,23.28345449],[116.9259191,23.27867026],[116.9213662,23.27091057],[116.8536272,23.22329139]]]},"properties":{"pid":35,"name":"汕头1号锚地","guid":"289005ff-3049-44f5-8c28-bc9d3a15aa40"}},{"type":"Feature","geometry":{"type":"Polygon","coordinates":[[[117.005911361111,23.3726804722222],[116.974744083333,23.3550012777778],[116.996513722222,23.3259776944444],[117.025556666667,23.3459854722222],[117.005911361111,23.3726804722222]]]},"properties":{"pid":170,"name":"汕头2号锚地","guid":"dcaa7ba9-a5b8-4ecf-848f-ed1ed183088a"}},{"type":"Feature","geometry":{"type":"Polygon","coordinates":[[[116.53392617,22.96487713],[116.56005088,22.97371811],[116.58872527,22.93656888],[116.54994053,22.91616395],[116.53392617,22.96487713]]]},"properties":{"pid":171,"name":"靖海锚地","guid":"dd8d6209-035c-4b31-9488-8b9f5b12715c"}},{"type":"Feature","geometry":{"type":"Polygon","coordinates":[[[111.837947805556,21.3566986666667],[111.834263111111,21.3557474722222],[111.830497305556,21.3562944166667],[111.821220111111,21.3600611388889],[111.8186685,21.3629215277778],[111.757694611111,21.4764507222222],[111.727058083333,21.5390027222222],[111.729633027778,21.5456889166667],[111.734997444444,21.5510775555556],[111.810922194444,21.5547174166667],[111.824042111111,21.55317325],[111.854398611111,21.5463771111111],[111.857382388889,21.5437309444444],[111.909175805556,21.4557607777778],[111.913139305556,21.4109771944444],[111.913080694444,21.4073924444444],[111.91214,21.4045751388889],[111.909649194444,21.4015120555556],[111.87788,21.3760410833333],[111.837947805556,21.3566986666667]]]},"properties":{"pid":31,"name":"阳江1号锚地","guid":"e755aa3e-25cc-4a25-a56f-82da8f8bb0e5"}},{"type":"Feature","geometry":{"type":"Polygon","coordinates":[[[112.125778,21.734148],[112.125778,21.734148],[112.165947,21.73351],[112.18879914,21.71905867],[112.22270226,21.66273302],[112.22248769,21.61456463],[112.1781776,21.59730786],[112.150154,21.622165],[112.12968326,21.64727701],[112.1108005,21.65505508],[112.09417081,21.67070968],[112.08118892,21.70789498],[112.125778,21.734148]]]},"properties":{"pid":172,"name":"阳江2号锚地","guid":"4bd2cba6-67ee-49c7-a129-87b120626284"}},{"type":"Feature","geometry":{"type":"Polygon","coordinates":[[[116.32860924,22.87775064],[116.35983016,22.88032068],[116.36034551,22.86017472],[116.33057299,22.85266104],[116.32860924,22.87775064]]]},"properties":{"pid":175,"name":"揭阳2号锚地","guid":"3f3ca187-9b8a-45d1-af30-f283d515d2d6"}},{"type":"Feature","geometry":{"type":"Polygon","coordinates":[[[114.100323,22.1651134722222],[114.117542777778,22.1564192222222],[114.164910583333,22.1556243055556],[114.18003825,22.15075525],[114.179072666667,22.1769368055556],[114.098070361111,22.1774950277778],[114.100323,22.1651134722222]]]},"properties":{"pid":173,"name":"香港南丫电厂锚地","guid":"34eaeb17-354a-4e06-b9a3-856c5d2ff0bb"}},{"type":"Feature","geometry":{"type":"Polygon","coordinates":[[[122.86814009,31.26957323],[123.158112,30.906938],[123.491821,31.036462],[123.004303,31.380606],[122.8688266,31.34642493],[122.86814009,31.26957323]]]},"properties":{"pid":176,"name":"长江口6号锚地","guid":"916433a2-cf5d-4676-83a9-5fbf9053e37b"}},{"type":"Feature","geometry":{"type":"Polygon","coordinates":[[[122.51558841666667,30.42244286111111],[122.51610341666667,30.399644166666665],[122.57103505555556,30.39979222222222],[122.57103505555556,30.422294833333336],[122.51558841666667,30.42244286111111]]]},"properties":{"pid":177,"name":"鼠浪湖4号锚地","guid":"8c7165ea-9761-41d3-a831-fe8dbebacad3"}},{"type":"Feature","geometry":{"type":"Polygon","coordinates":[[[122.32094333333333,30.406991027777778],[122.32197330555555,30.35219727777778],[122.44488283333334,30.354567388888892],[122.43492647222223,30.404918305555555],[122.32094333333333,30.406991027777778]]]},"properties":{"pid":178,"name":"鼠浪湖5号锚地","guid":"3cf60ffe-64ec-4205-b75a-8e3808470d5d"}},{"type":"Feature","geometry":{"type":"Polygon","coordinates":[[[121.23492802777778,40.57537480555556],[121.23424138888889,40.39886136111111],[121.24797430555556,40.27691177777778],[121.27681341666667,40.19828688888889],[121.47182072222222,40.19618897222222],[121.63524236111111,40.37323361111111],[121.59404363888889,40.53729138888889],[121.50203313888889,40.673873666666665],[121.38667669444445,40.674915194444445],[121.28779972222222,40.64574594444444],[121.23492802777778,40.57537480555556]]]},"properties":{"pid":179,"name":"葫芦岛1号锚地","guid":"3a65cd6e-f140-4177-a27b-2bf3e72a734d"}},{"type":"Feature","geometry":{"type":"Polygon","coordinates":[[[113.85538441666667,22.105803861111113],[113.85092122222221,22.046945805555556],[113.92610888888889,22.054901027777778],[113.92507891666668,22.109938916666668],[113.85538441666667,22.105803861111113]]]},"properties":{"pid":180,"name":"广州锚地","guid":"315435f5-d1e2-475f-92fc-3515d10a2e72"}},{"type":"Feature","geometry":{"type":"Polygon","coordinates":[[[121.828443,29.669735111111113],[121.81402344444444,29.654221749999998],[121.81299349999999,29.64497227777778],[121.82226319444445,29.638109194444443],[121.85281891666666,29.637810805555556],[121.94551608333333,29.650044666666666],[121.97607180555556,29.648552805555553],[121.97710177777778,29.662277055555553],[121.96371216666667,29.669735111111113],[121.88440461111112,29.68196511111111],[121.828443,29.669735111111113]]]},"properties":{"pid":181,"name":"宁波锚地","guid":"6fbe6b81-9cec-4bdb-b865-5c6505004d09"}},{"type":"Feature","geometry":{"type":"Polygon","coordinates":[[[119.00023898,24.87544697],[119.04456811,24.96858677],[119.0410276,24.9848283],[119.0355862,25.026228],[119.03621735,25.0340925],[119.0587479,25.03161364],[119.07111011,25.02666556],[119.08855869,25.02681886],[119.1059394,25.02098582],[119.13104488,25.02312463],[119.15293171,25.03226278],[119.2235869,24.96366978],[119.2249315,24.96101921],[119.2254296,24.9580891],[119.2250363,24.9551431],[119.2014794,24.89664765],[119.1998948,24.89393225],[119.1987321,24.89240508],[119.1972592,24.89103147],[119.1941685,24.8893426],[119.154378,24.87332417],[119.1529194,24.87279241],[119.02015949,24.84740389],[118.99226451,24.85353721],[118.98790082,24.86191671],[119.00023898,24.87544697]]]},"properties":{"pid":182,"name":"泉州二号锚地","guid":"e7b01b86-8701-4f88-aee5-426e15f97fcd"}},{"type":"Feature","geometry":{"type":"Polygon","coordinates":[[[122.26960519444444,29.584515027777776],[122.54151680555556,29.466214777777775],[122.65138008333334,29.445886694444443],[123.02491524999999,29.42316225],[123.34763863888888,30.02898522222222],[122.90543894444446,30.09910888888889],[122.68983225000001,30.12049263888889],[122.26960519444444,29.584515027777776]]]},"properties":{"pid":183,"name":"北仑锚地","guid":"82d5be5d-70ac-4c26-b679-22eb6e065772"}},{"type":"Feature","geometry":{"type":"Polygon","coordinates":[[[122.26960519444444,29.584515027777776],[122.54151680555556,29.466214777777775],[122.65138008333334,29.445886694444443],[123.02491524999999,29.42316225],[123.34763863888888,30.02898522222222],[122.90543894444446,30.09910888888889],[122.68983225000001,30.12049263888889],[122.26960519444444,29.584515027777776]]]},"properties":{"pid":184,"name":"宁波锚地","guid":"82d5be5d-70ac-4c26-b679-22eb6e065773"}}]}